,IRN,ORGANIZATION NAME,GRADE SPAN,Address,ORG PHONE,Latitude,Longitude
0,828,Anton Grdina ,"P,K-8","2955 E 71st St, Cleveland, Ohio, 44104",(216) 838-1150,41.4782583,-81.63895509999998
1,7849,Crosby Elementary School,K-5,"8382 New Haven Rd, Harrison, Ohio, 45030",(513) 738-1717,39.2766386,-84.71695799999998
2,711,Pymatuning Valley Primary Elementary School,K-4,"5571 State Route 6, Andover, Ohio, 44003",(440) 293-6206,41.60943959999999,-80.58543159999998
3,1107,Buckeye Valley East Elementary School,"K-4,P","522 E High St, Ashley, Ohio, 43003",(740) 363-2253,40.40946479999999,-82.94717759999997
4,1396,Avondale Elementary School,"K-5,P","141 Hawkes Ave, Columbus, Ohio, 43222",(614) 365-6511,39.95621129999999,-83.02555490000002
5,1602,Barnesville High School,9-12,"910 Shamrock Dr, Barnesville, Ohio, 43713",(740) 425-3617,39.98684340000001,-81.1571965
6,1891,Bear Elementary School,K-5,"545 School St, Miamisburg, Ohio, 45342",(937) 866-4691,39.634013,-84.30273000000003
7,2782,Black River High School,9-12,"233 County Road 40, Sullivan, Ohio, 44880",(419) 736-3303,41.0567498,-82.1734877
8,4564,Caldwell Elementary School,K-8,"44350 Fairgrounds Rd, Caldwell, Ohio, 43724",(740) 732-4614,39.7401764,-81.5245848
9,6841,Thurgood Marshall High School,9-12,"4447 Hoover Ave, Dayton, Ohio, 45417",(937) 542-6610,39.76282459999999,-84.261184
10,8623,Dorothy E Lewis Elementary School,"K,1-4,UNG","32345 Cannon Rd, Solon, Ohio, 44139",(440) 349-6225,41.410958,-81.44975199999998
11,9514,East High School ,9-12,"1500 E Broad St, Columbus, Ohio, 43205",(614) 365-6096,39.9671025,-82.96088139999998
12,10512,Emerson Primary School,K-2,"901 Campbell Rd, Sidney, Ohio, 45365",(937) 497-2261,40.2795769,-84.16968469999998
13,11692,Firestone High School,9-12,"470 Castle Blvd, Akron, Ohio, 44313",(330) 873-3315,41.1189134,-81.56469859999999
14,2170,Benjamin Logan Elementary School,K-4,"4560 County Road 26, Bellefontaine, Ohio, 43311",(937) 592-4838,40.4100017,-83.6531938
15,3061,Boardman High School,9-12,"7777 Glenwood Ave, Youngstown, Ohio, 44512",(330) 758-7511,41.0111623,-80.66847369999998
16,7120,Como Elementary School,"K-5,P","2989 Reis Ave, Columbus, Ohio, 43224",(614) 365-6013,40.0258513,-82.99261489999998
17,10967,Fairfax Elementary School,K-5,"3150 Fairfax Rd, Cleveland Heights, Ohio, 44118",(216) 371-7480,41.4926963,-81.5658982
18,59,Ada Elementary School,K-6,"435 Grand Ave, Ada, Ohio, 45810",(419) 634-2341,40.7747376,-83.82948259999998
19,5298,Centerburg High School,9-12,"3782 Columbus Rd, Centerburg, Ohio, 43011",(740) 625-6055,40.294354,-82.705479
20,5504,Davey Elementary School,"K-5,P","196 N Prospect St, Kent, Ohio, 44240",(330) 673-6703,41.1576828,-81.3670015
21,5793,Chambers Elementary School,K-6,"14121 Shaw Ave, East Cleveland, Ohio, 44112",(216) 268-6640,41.5408925,-81.5832041
22,6189,Chestnut Intermediate Elementary School,3-5,"30395 Lorain Rd, North Olmsted, Ohio, 44070",(440) 588-5500,41.3990777,-81.9532042
23,8961,East Canton High School,9-12,"310 Browning Ct N, East Canton, Ohio, 44730",(330) 488-0316,40.7893435,-81.27917579999998
24,10355,Toth Elementary School,K-4,"200 E 7th St, Perrysburg, Ohio, 43551",(419) 874-3123,41.5537307,-83.62162339999998
25,1446,Badger High School,9-12,"7119 State Route 7, Kinsman, Ohio, 44428",(330) 876-2820,41.4137132,-80.57942990000002
26,2337,Belpre High School,7-12,"300 Stone Rd, Belpre, Ohio, 45714",(740) 423-3000,39.2750849,-81.5771012
27,2832,Blanchester Middle School,6-8,"955 Cherry St, Blanchester, Ohio, 45107",(937) 783-3642,39.299119,-83.96756359999998
28,3228,Botkins High School,7-12,"404 E State St, Botkins, Ohio, 45306",(937) 693-4241,40.4688865,-84.17961439999998
29,4119,Buckeye Elementary School,K-2,"1200 Buckeye Ave, Salem, Ohio, 44460",(330) 332-8917,40.9133641,-80.85948690000002
30,4614,Cambridge Middle School,6-8,"1400 Deerpath Dr, Cambridge, Ohio, 43725",(740) 435-1140,40.0514871,-81.5829546
31,5181,Cedarwood Alternative Elementary School,"K-5,P","775 Bartfield Dr, Columbus, Ohio, 43207",(614) 365-5421,39.884089,-82.979327
32,6072,Swanton Middle School,5-8,"101 Elton Pkwy, Swanton, Ohio, 43558",(419) 826-4016,41.5844508,-83.89374939999998
33,11247,Fairview-Clifton German Language School,"K-6,P","3689 Clifton Ave, Cincinnati, Ohio, 45220",(513) 363-2100,39.1494666,-84.51967929999998
34,2220,Bellefontaine High School,9-12,"555 E Lake Ave, Bellefontaine, Ohio, 43311",(937) 593-0545,40.34829310000001,-83.7535323
35,4002,Bryan Elementary,"K-5,P","1301 Center St, Bryan, Ohio, 43506",(419) 636-6931,41.458431,-84.56895290000001
36,9241,East Elementary School,K-5,"470 Fair Ave NE, New Philadelphia, Ohio, 44663",(330) 364-0715,40.4886994,-81.43656829999998
37,11130,Judith A Resnik Community Learning Center,K-5,"65 N Meadowcroft Dr, Akron, Ohio, 44313",(330) 873-3370,41.117169200000006,-81.5832927
38,11908,Berea-Midpark Middle School,5-8,"7000 Paula Dr, Middleburg Heights, Ohio, 44130",(216) 767-8400,41.3778995,-81.80483389999998
39,893,Arcadia High School,9-12,"19033 State Route 12, Arcadia, Ohio, 44804",(419) 894-6431,41.1064685,-83.5150996
40,2675,Bexley High School,9-12,"326 S Cassingham Rd, Bexley, Ohio, 43209",(614) 231-4591,39.963655,-82.9303272
41,3566,Bridgetown Middle School,6-8,"3900 Race Rd, Cincinnati, Ohio, 45211",(513) 574-3511,39.1603573,-84.62837250000003
42,4457,Shaker Hts Middle School,7-8,"20600 Shaker Blvd, Shaker Heights, Ohio, 44122",(216) 295-4100,41.4773421,-81.5334151
43,4952,Louise Troy Elementary School,"K-6,P","1630 Miami Chapel Rd, Dayton, Ohio, 45408",(937) 542-4290,39.7369594,-84.22516259999998
44,5348,London MIddle School,6-8,"270 E Keny Blvd, London, Ohio, 43140",(740) 852-5700,39.9072364,-83.45316070000001
45,6239,Cheviot School,"K-6,P","4040 Harrison Ave, Cincinnati, Ohio, 45211",(513) 363-1400,39.1587027,-84.61720299999998
46,6734,Clinton-Massie High School,9-12,"2556 Lebanon Rd, Clarksville, Ohio, 45113",(937) 289-2109,39.4466924,-83.9851733
47,7625,Norwayne Middle School,6-8,"350 S Main St, Creston, Ohio, 44217",(330) 435-1195,40.965294,-81.9029819
48,9407,Waverly Primary School,K-2,"7 Tiger Drive, Waverly, Ohio, 45690",(740) 947-2813,39.1318936,-83.0023416
49,9902,Edgewater Elementary School,K-8,"5549 Edgewater Dr, Toledo, Ohio, 43611",(419) 671-6750,41.7216689,-83.47042840000002
50,10199,Elida High School,9-12,"401 E North St, Elida, Ohio, 45807",(419) 331-4115,40.78977709999999,-84.195762
51,1172,Atkinson Elementary School,K-5,"1100 Delaware Ave, Fremont, Ohio, 43420",(419) 332-5361,41.3367052,-83.10017320000001
52,9084,East Liverpool High School,9-12,"100 Maine Blvd, East Liverpool, Ohio, 43920",(330) 386-8750,40.6277331,-80.5676996
53,10082,Elida Middle School,5-8,"4500 Sunnydale St, Elida, Ohio, 45807",(419) 331-2505,40.7874998,-84.18741849999998
54,4341,Burroughs Elementary School,"K-5,P","551 S Richardson Ave, Columbus, Ohio, 43204",(614) 365-5923,39.943889,-83.06776479999998
55,5686,Glenwood Middle School,6-8,"1715 N Main St, Findlay, Ohio, 45840",(419) 425-8373,41.0610764,-83.6490864
56,6577,Clearcreek Elementary School,"K-1,P","750 S Main St, Springboro, Ohio, 45066",(937) 748-3958,39.5470479,-84.23243099999998
57,7963,Elmwood Middle School,5-8,"7650 Jerry City Rd, Bloomdale, Ohio, 44817",(419) 655-2583,41.255188,-83.5520465
58,8359,Pike-Delta-York Middle School,5-8,"1101 Panther Pride Dr, Delta, Ohio, 43515",(419) 822-9118,41.58042879999999,-83.99444820000002
59,8854,Dundee Elementary School,K-6,"8072 School St, Dundee, Ohio, 44624",(330) 852-2022,40.5852994,-81.60838059999998
60,448,Allen East Elementary School,K-5,"9105 Harding Hwy, Harrod, Ohio, 45850",(419) 648-3333,40.73379600000001,-83.93127299999998
61,943,First Step Preschool and Daycare,P,"7700 Malibu Dr, Parma, Ohio, 44130",(440) 885-8645,41.357433,-81.77039599999998
62,1339,Austintown Middle School,6-8,"800 S Raccoon Rd, Youngstown, Ohio, 44515",(330) 797-3900,41.09188899999999,-80.73363100000002
63,3616,Brimfield Elementary School,K-5,"4170 State Route 43, Kent, Ohio, 44240",(330) 673-8581,41.103686,-81.3437178
64,4507,Harrison Central Jr./Sr. High School,7-12,"100 Huskies Way, Cadiz, Ohio, 43907",(740) 942-7700,40.268933200000006,-80.9922728
65,4796,Canfield High School,9-12,"100 Cardinal Dr, Canfield, Ohio, 44406",(330) 533-5507,41.028398,-80.77322559999998
66,5074,Case Community Learning Center,K-5,"1420 Garman Rd, Akron, Ohio, 44313",(330) 873-3350,41.1164386,-81.5648523
67,10249,Ella Canavan Elementary School,K-5,"825 Lawrence St, Medina, Ohio, 44256",(330) 636-4000,41.126736,-81.87071800000002
68,11635,Findley Community Learning Center,K-5,"65 W Tallmadge Ave, Akron, Ohio, 44310",(330) 761-7909,41.1027272,-81.51726190000002
69,1222,Auburn Elementary School,K-4,"109 Auburn Ave, Shelby, Ohio, 44875",(419) 342-5456,40.8838529,-82.67344840000001
70,3293,Bowling Green Middle School,6-8,"1079 Fairview Ave, Bowling Green, Ohio, 43402",(419) 354-0200,41.3885291,-83.65772740000001
71,4184,Bucyrus Secondary School,6-12,"900 W Perry St, Bucyrus, Ohio, 44820",(419) 562-7721,40.813664,-82.9899949
72,9134,East Palestine High School,9-12,"360 W Grant St, East Palestine, Ohio, 44413",(330) 426-9401,40.8399626,-80.5461021
73,10132,Edwards Middle School,6-8,"1497 Pearl Rd, Brunswick, Ohio, 44212",(330) 273-0488,41.2345437,-81.84067209999998
74,11023,South Central Elementary School,K-5,"3291 Greenwich Angling Rd, Greenwich, Ohio, 44837",(419) 752-5021,41.0490696,-82.5189741
75,1677,Westlake Elementary School,K-4,"27555 Center Ridge Rd, Westlake, Ohio, 44145",(440) 250-1200,41.4476223,-81.92680539999998
76,2568,Bethel Tate High School,9-12,"3420 State Route 125, Bethel, Ohio, 45106",(513) 734-2271,38.9628625,-84.06448540000002
77,3954,William Bruce Elementary School,3-5,"506-B Aukerman St, Eaton, Ohio, 45320",(937) 456-3875,39.74939699999999,-84.62602199999998
78,5736,Zane Trace Elementary School,K-4,"946 State Route 180, Chillicothe, Ohio, 45601",(740) 775-1304,39.4277482,-82.93755139999998
79,6627,John Clem Elementary School,"K-5,P","475 Jefferson Rd, Newark, Ohio, 43055",(740) 670-7130,40.071441,-82.425421
80,8409,Denver Place Elementary School,3-4,"291 Lorish Ave, Wilmington, Ohio, 45177",(937) 382-2380,39.4548906,-83.8231876
81,8698,Frederick Douglass School,"K-6,P","2627 Park Ave, Cincinnati, Ohio, 45206",(513) 363-1900,39.1282823,-84.4864267
82,9589,Eastern High School,9-12,"1170 Tile Mill Rd, Beaver, Ohio, 45613",(740) 226-2231,39.0301061,-82.84227800000002
83,11478,Federal Hocking High School,9-12,"8461 State Route 144, Stewart, Ohio, 45778",(740) 662-6691,39.3119524,-81.87950699999998
84,11973,Winton Woods Intermediate School,5-6,"825 Waycross Rd, Cincinnati, Ohio, 45240",(513) 619-2450,39.2824448,-84.5047089
85,12369,Franklin Elementary School,K-5,"446 11th St, Elyria, Ohio, 44035",(440) 284-8007,41.3558311,-82.11329789999998
86,2451,Berlin Elementary School,K-6,"4978 W Main St, Berlin, Ohio, 44610",(330) 893-2817,40.56118060000001,-81.8013412
87,4846,Cardinal Middle School,5-8,"16175 Almeda Dr., Middlefield, Ohio, 44062",(440) 632-0261,41.468427,-81.06439
88,5124,Cedar Elementary School,3-5,"2823 9th St SW, Canton, Ohio, 44710",(330) 580-3502,40.794529,-81.40669150000002
89,6015,Chase School,"K-6,P","4151 Turrill St, Cincinnati, Ohio, 45223",(513) 363-1300,39.1620656,-84.5429411
90,6510,Claymont Middle School,6-8,"215 E 6th St, Uhrichsville, Ohio, 44683",(740) 922-5241,40.3944809,-81.34518390000002
91,7195,Northwestern Middle School,6-8,"7569 N Elyria Rd, West Salem, Ohio, 44287",(419) 846-3974,40.8920016,-82.1073689
92,7401,Cory-Rawson High School,7-12,"3930 County Road 26, Rawson, Ohio, 45881",(419) 963-2611,40.937742,-83.80549599999998
93,7690,Crestview Elementary School,K-5,"531 E Tully St, Convoy, Ohio, 45832",(419) 749-9100,40.9167516,-84.70161259999998
94,8086,Danville High School,9-12,"10 Rambo St, Danville, Ohio, 43014",(740) 599-6116,40.4473063,-82.2616398
95,8581,Dominion Middle School,6-8,"330 E Dominion Blvd, Columbus, Ohio, 43214",(614) 365-6020,40.0540678,-83.01020369999998
96,4234,Buhrer,"P,K-8","1600 Buhrer Ave, Cleveland, Ohio, 44109",(216) 838-8350,41.46822179999999,-81.6946085
97,6965,Col Crawford High School,9-12,"5444 Crestline Rd, Crestline, Ohio, 44827",(419) 562-4666,40.786122,-82.853832
98,7856,Byrnedale Elementary School,K-8,"3635 Glendale Ave, Toledo, Ohio, 43614",(419) 671-2200,41.610385,-83.629547
99,836,Antwerp Local Elementary School,K-5,"303 S. Harrmann Rd, Antwerp, Ohio, 45813",(419) 258-5421,41.1782454,-84.729434
100,3509,Ridge Elementary School,"K-5,P","7860 Johnnycake Ridge Rd, Mentor, Ohio, 44060",(440) 255-7813,41.6546165,-81.3582455
101,5462,Fairfield Central Elementary School,K-5,"5054 Dixie Hwy, Fairfield, Ohio, 45014",(513) 829-7979,39.3413293,-84.5335803
102,6353,Clara E Westropp School,"P,K-8","19101 Puritas Ave, Cleveland, Ohio, 44135",(216) 838-6250,41.43346210000001,-81.83131499999998
103,8748,Chippewa Intermediate School,3-6,"100 Valley View Rd, Doylestown, Ohio, 44230",(330) 658-2214,40.9613859,-81.69232559999998
104,11528,Jacob Coy Middle School,6-8,"1786 Dayton Xenia Rd, Xenia, Ohio, 45385",(937) 429-7577,39.7136721,-84.0013572
105,12419,Frazeysburg Elementary School,K-6,"120 E 3rd St, Frazeysburg, Ohio, 43822",(740) 828-2781,40.11967509999999,-82.1135171
106,224,Adlai Stevenson School,K-8,"18300 Woda, Cleveland, Ohio, 44122",(216) 838-5300,41.45486500000001,-81.5509811
107,2501,Berne Union High School,7-12,"506 N Main St, Sugar Grove, Ohio, 43155",(740) 746-9956,39.629482,-82.54597799999998
108,4077,Buchtel High School,7-12,"1040 Copley Rd, Akron, Ohio, 44320",(330) 873-3300,41.086213,-81.55994100000002
109,7245,Conotton Valley High School,6-12,"7205 Cumberland Rd SW, Bowerston, Ohio, 44695",(740) 269-2711,40.46303,-81.21882099999998
110,8136,David Anderson Jr/Sr High School,6-12,"260 W Pine St, Lisbon, Ohio, 44432",(330) 424-3215,40.7754336,-80.77253409999999
111,9027,East End Elementary School,"P,5","769 Rombach Ave, Wilmington, Ohio, 45177",(937) 382-2443,39.4471354,-83.81532390000002
112,9522,Milkovich Middle School,6-8,"19800 Stafford Ave, Maple Heights, Ohio, 44137",(216) 438-6000,41.414399,-81.54022499999998
113,10025,Edison Elementary School,K-3,"1202 Masters Ave, Ashland, Ohio, 44805",(419) 289-7965,40.879242700000006,-82.32950459999998
114,12096,Adena Elementary School,"K-4,P","3367 County Road 550, Frankfort, Ohio, 45628",(740) 998-5293,39.4156613,-83.19461559999998
115,12591,Fort Frye High School,7-12,"420 Fifth St, Beverly, Ohio, 45715",(740) 984-2376,39.5475769,-81.63167829999998
116,2956,Bloomfield High School,6-12,"2077 Park West Rd, North Bloomfield, Ohio, 44450",(440) 685-4711,41.46428,-80.87187
117,7906,Brookfield Elementary School,K-4,"614 Bedford Rd SE, Brookfield, Ohio, 44403",(330) 619-5240,41.2257896,-80.56142229999998
118,10975,Fairfax Elementary School,K-5,"6465 Curtiss Ct, Mentor, Ohio, 44060",(440) 255-7223,41.694015,-81.3486719
119,67,Ada High School,7-12,"435 Grand Ave, Ada, Ohio, 45810",(419) 634-2746,40.7747376,-83.82948259999998
120,562,Amanda-Clearcreek High School,9-12,"328 E Main St, Amanda, Ohio, 43102",(740) 969-7251,39.6496392,-82.7348828
121,1453,Paint Valley Middle School,6-8,"7454 Us Highway 50 W, Bainbridge, Ohio, 45612",(740) 634-3454,39.2440211,-83.21576900000002
122,3848,Brookview Elementary School,"K-4,P","14105 Snow Rd, Brook Park, Ohio, 44142",(216) 676-4334,41.4044558,-81.7926478
123,4739,Streetsboro Elementary School,"K-3,P","8955 Kirby Ln, Streetsboro, Ohio, 44241",(330) 626-4907,41.2342713,-81.3221934
124,5017,Carrollton High School-Carrollton Middle School,6-12,"252 3rd St NE, Carrollton, Ohio, 44615",(330) 627-2134,40.5732645,-81.08253690000002
125,6692,Clinton Elementary School ,K-6,"10 Clinton Heights Ave, Columbus, Ohio, 43202",(614) 365-6532,40.0307579,-83.0150723
126,7088,Lakeside Junior High School,7-8,"6620 Sanborn Rd, Ashtabula, Ohio, 44004",(440) 993-2618,41.8429402,-80.82474040000002
127,8474,Devonshire Alternative Elementary School,"K-5,P","6286 Ambleside Dr, Columbus, Ohio, 43229",(614) 365-5335,40.09461500000001,-82.98299499999997
128,9365,Greenville Elementary School,K-4,"1111 N Ohio St, Greenville, Ohio, 45331",(937) 548-3185,40.115764,-84.61471519999998
129,2840,Blanchester High School,9-12,"953 Cherry St, Blanchester, Ohio, 45107",(937) 783-2461,39.2989859,-83.96961379999998
130,4127,Buckeye High School,"9-12,SN","3084 Columbia Rd, Medina, Ohio, 44256",(330) 722-8257,41.189708,-81.92619499999998
131,4622,Cambridge High School,9-12,"1401 Deerpath Dr, Cambridge, Ohio, 43725",(740) 435-1100,40.0523679,-81.58319519999998
132,6080,Cherry Valley Elementary School,"K-5,P","1040 W Main St, Newark, Ohio, 43055",(740) 670-7330,40.05011349999999,-82.4403219
133,5967,Charles W Springmyer Elementary School,K-5,"4179 Ebenezer Rd, Cincinnati, Ohio, 45248",(513) 574-1205,39.168692,-84.65367499999998
134,6858,Coldwater High School,9-12,"310 N 2nd St, Coldwater, Ohio, 45828",(419) 678-4821,40.4820542,-84.6300194
135,729,Andrew J Rickoff ,"P,K-8","3500 E 147th St, Cleveland, Ohio, 44120",(216) 838-4150,41.4629998,-81.5793387
136,5850,Chaney High,9-12,"731 S Hazelwood Ave, Youngstown, Ohio, 44509",(330) 744-8822,41.0923299,-80.69571069999998
137,11916,Riverdale Elementary School,K-2,"20613 State Route 37, Mt Blanchard, Ohio, 45867",(419) 694-2211,40.86896,-83.517611
138,117,Adamsville Elementary School,K-6,"7950 East St, Adamsville, Ohio, 43802",(740) 796-2153,40.06601999999999,-81.881849
139,612,West Clermont Middle School,6-8,"1351 Clough Pike, Batavia, Ohio, 45103",(513) 947-7500,39.0610523,-84.22981
140,1297,Aurora High School,9-12,"109 W Pioneer Trl, Aurora, Ohio, 44202",(330) 562-3501,41.3101271,-81.35084429999998
141,1792,Bay High School,9-12,"29230 Wolf Rd, Bay Village, Ohio, 44140",(440) 617-7400,41.48693,-81.94339599999998
142,2683,River Valley Middle School ,6-8,"8779 State Route 160, Bidwell, Ohio, 45614",(740) 446-8399,38.91801029999999,-82.28246709999998
143,6742,Clough Pike Elementary School,K-5,"609 Brantner Ln, Cincinnati, Ohio, 45244",(513) 943-6700,39.0912624,-84.29369090000002
144,7633,Crestview Elementary School,K-5,"300 W 130th St, Brunswick, Ohio, 44212",(330) 273-0482,41.26819,-81.787026
145,8029,Dan Emmett Elementary School,K-5,"108 Mansfield Ave, Mount Vernon, Ohio, 43050",(740) 393-5950,40.4078583,-82.48635909999999
146,9910,Edgewood Middle School,5-7,"2695 Graustark Path, Wooster, Ohio, 44691",(330) 345-6475,40.83216779999999,-81.9332319
147,10413,Elmwood Elementary School,K-5,"5275 Turney Rd, Garfield Heights, Ohio, 44125",(216) 475-8110,41.41795,-81.6055916
148,11304,Fairview High School,9-12,"4507 W 213 Street, Fairview Park, Ohio, 44126",(440) 356-3500,41.4423345,-81.85568959999998
149,11593,Hubbard Mastery School ,"K-6,P","104 W Hubbard Ave, Columbus, Ohio, 43215",(614) 365-5564,39.9787782,-83.00722359999997
150,1180,Seneca East Elementary,K-5,"13343 E US Highway 224, Attica, Ohio, 44807",(419) 426-3344,41.07886370000001,-82.91542439999998
151,7021,Columbia High School,9-12,"14168 W River Rd, Columbia Station, Ohio, 44028",(440) 236-5001,41.311195,-81.923732
152,10090,Edon High School,7-12,"802 W Indiana St, Edon, Ohio, 43518",(419) 272-3113,41.558151,-84.781086
153,1958,Beaver Local High School,9-12,"46088 Bell School Rd, East Liverpool, Ohio, 43920",(330) 386-8700,40.7106482,-80.6303345
154,6908,Colerain Middle School,6-8,"4700 Poole Rd, Cincinnati, Ohio, 45251",(513) 385-8490,39.2388974,-84.6138387
155,8979,Midview West Elementary School,"P,K,3-4","13080 Durkee Rd, Grafton, Ohio, 44044",(440) 748-2305,41.2987569,-82.05623979999999
156,10868,Evening Street Elementary School,K-6,"885 Evening St, Worthington, Ohio, 43085",(614) 450-4400,40.0915831,-83.02271100000002
157,455,West Elementary,"K-5,P","57710 US Highway 50, Mc Arthur, Ohio, 45651",(740) 596-5236,39.2722774,-82.60934379999998
158,950,Newton Falls Elementary School,K-3,"905 Milton Blvd, Newton Falls, Ohio, 44444",(330) 872-5225,41.1775205,-80.95695140000002
159,5199,Celina Middle School,7-8,"615 Holly St, Celina, Ohio, 45822",(419) 586-8300,40.5561408,-84.5615102
160,5405,Central Academy Nongraded Elementary School,K-6,"4601 Sophie Ave, Middletown, Ohio, 45042",(513) 420-4537,39.5160562,-84.3477272
161,5900,Charles Dickens School,K-8,"13013 Corlett Ave, Cleveland, Ohio, 44105",(216) 838-4200,41.4563438,-81.5917462
162,6585,Amanda-Clearcreek Primary School,K-2,"414 N School St, Amanda, Ohio, 43102",(740) 969-7254,39.6516548,-82.7385053
163,9258,East Elementary School,K-5,"714 E Vine St, Mount Vernon, Ohio, 43050",(740) 393-5985,40.39162520000001,-82.4724411
164,10751,Eastern Heights Middle School,6-8,"528 Garford Ave, Elyria, Ohio, 44035",(440) 284-8015,41.36326920000001,-82.09016059999998
165,1347,Avery Elementary School,K-5,"4388 Avery Rd, Hilliard, Ohio, 43026",(614) 921-5100,40.04183370000001,-83.15510090000002
166,1842,Beachwood High School,9-12,"25100 Fairmount Blvd, Beachwood, Ohio, 44122",(216) 831-2080,41.4832969,-81.5011991
167,2733,Binns Elementary School,K-5,"1080 Binns Blvd, Columbus, Ohio, 43204",(614) 365-5911,39.932458200000006,-83.0796735
168,3129,Tuscarawas Valley Intermediate,"2-4,SN","216 Park Ave SW, Bolivar, Ohio, 44612",(330) 874-3234,40.6546036,-81.45021750000002
169,3624,Malabar Intermediate School,3-6,"205 W Cook Rd, Mansfield, Ohio, 44907",(419) 525-6370,40.7304088,-82.51971440000001
170,4515,Southwestern Elementary School,"K-5,P","4834 State Route 325, Patriot, Ohio, 45658",(740) 379-2532,38.8242807,-82.4017564
171,5082,Cassingham Elementary School,K-5,"250 S Cassingham Rd, Bexley, Ohio, 43209",(614) 237-4266,39.9647438,-82.9301311
172,8250,Deer Park  Jr/Sr High School,7-12,"8351 Plainfield Rd, Cincinnati, Ohio, 45236",(513) 891-0010,39.210576,-84.39942740000002
173,11643,Finland Elementary School,K-4,"1835 Finland Ave, Columbus, Ohio, 43223",(614) 801-8125,39.9197497,-83.04092220000003
174,12039,Fostoria Junior/Senior High School,7-12,"1001 Park Ave, Fostoria, Ohio, 44830",(419) 436-4110,41.169419,-83.4324676
175,1230,Timmons Elementary School,"K-3,P","9595 E Washington St, Chagrin Falls, Ohio, 44023",(440) 543-9380,41.39443199999999,-81.301112
176,4192,Budd Elementary School,4-6,"210 E Main St, Loudonville, Ohio, 44842",(419) 994-3327,40.6351216,-82.2314614
177,11031,Fairfield Local Elementary School,K-4,"11611 State Route 771, Leesburg, Ohio, 45135",(937) 780-2988,39.3288078,-83.5466597
178,505,Alton Hall Elementary School,K-4,"982 Alton Rd, Galloway, Ohio, 43119",(614) 801-8000,39.92927460000001,-83.17687480000002
179,1685,Bataan Memorial Primary School,K-2,"575 W 6th St, Port Clinton, Ohio, 43452",(419) 734-2815,41.506259,-82.9508075
180,2576,Bethel High School,9-12,"7490 State Route 201, Tipp City, Ohio, 45371",(937) 845-9487,39.9190184,-84.0862684
181,3467,Brecksville-Broadview Heights High School,9-12,"6380 Mill Rd, Broadview Heights, Ohio, 44147",(440) 740-4700,41.32724320000001,-81.64443370000002
182,4358,Burroughs Elementary School,K-8,"2420 South Ave, Toledo, Ohio, 43609",(419) 671-2350,41.6314088,-83.6019967
183,4853,Cardinal High School,9-12,"14785 Thompson Ave, Middlefield, Ohio, 44062",(440) 632-0261,41.4658302,-81.0677218
184,6635,Clermont Northeastern High School,9-12,"5327 Hutchinson Rd, Batavia, Ohio, 45103",(513) 625-1211,39.1305534,-84.1063538
185,7526,Covington Elementary School,"K-6,P","807 Chestnut St, Covington, Ohio, 45318",(937) 473-2252,40.1191699,-84.34200600000001
186,8912,Duxberry Park Alternative Elementary School,"K-5,P","1779 E Maynard Ave, Columbus, Ohio, 43219",(614) 365-6023,40.0089486,-82.96120359999998
187,9308,St. Marys East Primary School,"K-2,P","650 Armstrong St, Saint Marys, Ohio, 45885",(419) 394-2616,40.551791,-84.381148
188,9803,Eaton High School,9-12,"600 Hillcrest Dr, Eaton, Ohio, 45320",(937) 456-1141,39.7331336,-84.64860440000002
189,10306,Elm Avenue Elementary School,K-4,"134 Elm Ave, Wyoming, Ohio, 45215",,39.22063199999999,-84.47035699999998
190,10595,Englewood Elementary School,2-6,"702 Albert St, Englewood, Ohio, 45322",(937) 832-5900,39.8717008,-84.3003762
191,10801,Euclid Park Elementary School,K-8,"17914 Euclid Ave, Cleveland, Ohio, 44112",(216) 838-0700,41.5534043,-81.55298239999998
192,12377,Franklin Monroe High School,6-12,"8591 Oakes Rd, Arcanum, Ohio, 45304",(937) 947-1207,39.981471000000006,-84.48178
193,1073,Asbury Elementary School,K-5,"5127 Harbor Blvd, Columbus, Ohio, 43232",(614) 833-2000,39.901705,-82.865156
194,5132,Gorsuch West Elementary School,K-5,"440 Trace Dr, Lancaster, Ohio, 43130",(740) 687-7332,39.7105193,-82.6270894
195,8300,Defiance High School,9-12,"1755 Palmer Dr, Defiance, Ohio, 43512",(419) 784-2777,41.2640775,-84.35962690000002
196,4242,Ontario Primary School,2,"2302 Wade Ave, Ashtabula, Ohio, 44004",(440) 992-1240,41.873992,-80.81612380000001
197,7864,Crouse Community Learning Center,K-6,"1000 Diagonal Rd, Akron, Ohio, 44320",(330) 761-1625,41.0768277,-81.5529152
198,349,Upper Scioto Valley Middle School,7-8,"510 South Courtright Street, Mc Guffey, Ohio, 45859",(419) 757-3231,40.691297,-83.7880098
199,844,Antwerp Local High School,9-12,"303 S. Harrmann Rd, Antwerp, Ohio, 45813",(419) 258-5421,41.1782454,-84.729434
200,1735,Bath Elementary School,4-5,"1246 N Cleveland Massillon Rd, Akron, Ohio, 44333",(330) 523-3802,41.169929,-81.63835999999998
201,4408,Butler Middle School,5-8,"2011 Trojan Ave, Arcanum, Ohio, 45304",(937) 692-5174,39.9953422,-84.54883620000003
202,4697,C H Campbell Elementary School,K-4,"300 Moreland Dr, Canfield, Ohio, 44406",(330) 533-5959,41.0344347,-80.77348529999998
203,9647,Eastmont Elementary School,"K-6,P","1480 Edendale Rd, Dayton, Ohio, 45432",(937) 542-4490,39.73739920000001,-84.11242320000002
204,11536,Fernway Elementary School,K-4,"17420 Fernway Rd, Shaker Heights, Ohio, 44120",(216) 295-4040,41.4709562,-81.5573288
205,232,Adrian Elementary School,K-3,"1071 Homestead Rd, South Euclid, Ohio, 44121",(216) 691-2170,41.531023,-81.52613699999998
206,1123,Lakeside High School,9-12,"6600 Sanborn Rd, Ashtabula, Ohio, 44004",(440) 993-2522,41.84373,-80.819577
207,3400,Ballard Brady Middle School,6-8,"32000 Chagrin Blvd, Pepper Pike, Ohio, 44124",(216) 831-8600,41.456301,-81.450813
208,4085,Buckeye Central High School,9-12,"938 S Kibler St, New Washington, Ohio, 44854",(419) 492-2266,40.951189,-82.84687699999998
209,4580,Liberty Elementary School,K-5,"1932 Whetstone River Rd N, Caledonia, Ohio, 43314",(740) 725-5600,40.626421,-82.96513399999998
210,10033,Edison Elementary School,"K-6,P","228 N Broadway St, Dayton, Ohio, 45402",(937) 542-4540,39.7580925,-84.2141001
211,12310,Franklin High School,9-12,"750 E 4th St, Franklin, Ohio, 45005",(937) 743-8610,39.5537677,-84.2872926
212,687,Anderson High School,9-12,"7560 Forest Rd, Cincinnati, Ohio, 45255",(513) 232-2772,39.06943,-84.34749240000002
213,1578,Warren Middle School,5-8,"70 Warrior Dr, Vincent, Ohio, 45784",(740) 678-2395,39.398996200000006,-81.6649008
214,2964,Miami Trace Middle School,6-8,"3818 State Route 41 NW, Washington Court House, Ohio, 43160",(740) 333-4900,39.5953588,-83.5126719
215,5637,Alfred Benesch,"P,K-8","5393 Quincy Ave, Cleveland, Ohio, 44104",(216) 838-1300,41.4937331,-81.65242479999998
216,6528,Claymont High School,9-12,"4205 Indian Hill Rd SE, Uhrichsville, Ohio, 44683",(740) 922-3471,40.41390379999999,-81.36486140000002
217,8805,Dueber Elementary School,"K-2,P","815 Dueber Ave SW, Canton, Ohio, 44706",(330) 580-3517,40.7942091,-81.39453990000001
218,9985,Edison Elementary School,K-5,"5288 Karen Isle Dr, Willoughby, Ohio, 44094",(440) 942-2099,41.61911,-81.43549399999998
219,10983,Crestview Middle School,5-8,"44100 Crestview Rd Ste C, Columbiana, Ohio, 44408",(330) 482-4648,40.84539880000001,-80.66877590000001
220,1461,Baker Elementary School,3-6,"4095 Sheridan Dr, Vienna, Ohio, 44473",(330) 539-5042,41.223431,-80.67173000000003
221,2352,Gearity Professional Development School,K-5,"2323 Wrenford Rd, University Hts, Ohio, 44118",(216) 371-6515,41.4956469,-81.5259566
222,4747,Jonathan Alder Junior High,7-8,"6440 Kilbury Huber Rd, Plain City, Ohio, 43064",(614) 873-4635,40.0677225,-83.291814
223,5025,Dater Montessori School,"K-6,P","2840 Boudinot Ave, Cincinnati, Ohio, 45238",(513) 363-0900,39.1347767,-84.60296489999998
224,7096,Columbus Grove Elementary School,K-4,"201 W Cross St, Columbus Grove, Ohio, 45830",(419) 659-2631,40.9216636,-84.0560854
225,7302,Coolville Elementary School,K-6,"26461 Main St, Coolville, Ohio, 45723",(740) 667-3121,39.2221193,-81.79486800000002
226,9373,Chesapeake Middle School,5-8,"10335 County Road 1, Chesapeake, Ohio, 45619",(740) 867-3972,38.4228513,-82.4823916
227,10371,Elmhurst Elementary School,K-8,"4530 Elmhurst Rd, Toledo, Ohio, 43613",(419) 671-3550,41.6999191,-83.61401459999998
228,11262,Fairview Elementary School,"K-6,P","2314 Elsmere Ave, Dayton, Ohio, 45406",(937) 542-4590,39.7903856,-84.22931310000001
229,3244,Boulevard Elementary School,K-4,"14900 Drexmore Rd, Shaker Heights, Ohio, 44120",(216) 295-4020,41.481176,-81.57777
230,4135,Buckeye Middle School,6-8,"2950 Parsons Ave, Columbus, Ohio, 43207",(614) 365-5417,39.9027214,-82.98497370000003
231,4630,Camden Primary School,"K-3,P","120 Bloomfield St, Camden, Ohio, 45311",(937) 452-1204,39.6315777,-84.64913849999998
232,7757,Cridersville Elementary School,"K-4,P","501 Reichelderfer Road, Cridersville, Ohio, 45806",(419) 645-3000,40.6491322,-84.1498204
233,737,Massillon Junior High School,7-8,"250 29th St NW, Massillon, Ohio, 44647",(330) 830-3902,40.78762370000001,-81.56276159999999
234,1628,Brookside Intermediate School,3-6,"1812 Harris Rd, Sheffield Village, Ohio, 44054",(440) 949-4233,41.467061,-82.09642199999998
235,2519,Berry Intermediate School,5-6,"23 Oakwood Ave, Lebanon, Ohio, 45036",(513) 934-5700,39.43880770000001,-84.2096818
236,3905,Brown Middle School,6-8,"228 S Scranton St, Ravenna, Ohio, 44266",(330) 296-3849,41.157705,-81.26386020000002
237,5363,Mason Middle School,"7-8,SN","6370 S Mason Montgomery Rd, Mason, Ohio, 45040",(513) 398-9035,39.3459311,-84.3085088
238,8649,Dorr Street Elementary School,K-5,"1205 King Rd, Toledo, Ohio, 43617",(419) 867-5666,41.65276430000001,-83.72393989999998
239,11429,Fassett Junior High  School,7-8,"3025 Starr Ave, Oregon, Ohio, 43616",(419) 693-0455,41.64515460000001,-83.4751908
240,11924,Forest Elementary School,K-5,"413 E Canal St, Troy, Ohio, 45373",(937) 332-6747,40.035914,-84.1998394
241,620,Amesville Elementary School,K-6,"St. Rte. 329, Amesville, Ohio, 45711",(740) 448-2501,39.4004436,-81.955612
242,2196,Belle Haven Elementary School,"K-6,P","4401 Free Pike, Dayton, Ohio, 45416",(937) 542-4220,39.7991706,-84.26287640000002
243,4473,C O Harrison Elementary School,K-5,"585 Neeb Rd, Cincinnati, Ohio, 45233",(513) 922-1485,39.103303,-84.63880879999998
244,8037,Starling PK-8,"P,K-8","145 S Central Ave, Columbus, Ohio, 43222",(614) 365-5945,39.95459779999999,-83.03857099999998
245,8532,Dixie High School,9-12,"300 S Fuls Rd, New Lebanon, Ohio, 45345",(937) 687-1366,39.7418726,-84.40267890000001
246,9423,Urbana Elementary School,K-5,"1673 S Us Highway 68, Urbana, Ohio, 43078",(937) 653-1453,40.086505,-83.75638609999999
247,10421,SPRINGFIELD SCHOOL OF INNOVATION,K-12,"601 Selma Rd, Springfield, Ohio, 45505",(937) 505-4120,39.9133984,-83.80018740000001
248,11312,Fairwood Alternative Elementary School,"K-6,P","726 Fairwood Ave, Columbus, Ohio, 43205",(614) 365-6111,39.9521334,-82.95292839999998
249,12492,Fremont Middle School,6-8,"1250 North St, Fremont, Ohio, 43420",(419) 332-5569,41.3617168,-83.12603840000001
250,1966,Beavercreek High School,9-12,"2660 Dayton Xenia Rd, Beavercreek, Ohio, 45434",(937) 429-7547,39.7217118,-84.0332145
251,2857,Bloom Carroll Intermediate School,3-5,"200 Market Street, Lithopolis, Ohio, 43136",(614) 837-4044,39.8026766,-82.80965379999998
252,6916,College Corner Union Elementary School,"P,K,1-5,SN","230 Ramsey St, College Corner, Ohio, 45003",(765) 732-3183,39.5716199,-84.81566009999997
253,8987,East Clark,"P,K-8","885 E 146th St, Cleveland, Ohio, 44110",(216) 838-0650,41.555614,-81.57994990000002
254,10876,Arts Impact Middle School (Aims) ,6-8,"680 Jack Gibbs Blvd, Columbus, Ohio, 43215",(614) 365-5558,39.9739148,-82.98637540000001
255,11767,Fishcreek Elementary School,K-4,"5080 Fishcreek Rd, Stow, Ohio, 44224",(330) 689-5460,41.1879247,-81.42734039999998
256,463,Alliance High School,9-12,"400 Glamorgan St, Alliance, Ohio, 44601",(330) 829-2245,40.9111438,-81.1115052
257,1354,Avon East Elementary School,1-2,"3100 Nagle Rd, Avon, Ohio, 44011",(440) 937-6015,41.4459331,-81.9902103
258,3749,Brookfield High School,9-12,"614 Bedford Rd SE, Brookfield, Ohio, 44403",(330) 448-3001,41.2257896,-80.56142229999998
259,6098,Chesapeake High School,9-12,"10181 County Road 1, Chesapeake, Ohio, 45619",(740) 867-5906,38.4227854,-82.48514909999999
260,6304,Chippewa Elementary School,K-4,"8611 Wiese Rd, Brecksville, Ohio, 44141",(440) 740-4200,41.32709810000001,-81.6051334
261,6593,Springboro High School,9-12,"1675 S Main St, Springboro, Ohio, 45066",(937) 748-3950,39.5315519,-84.2450019
262,8375,Demmitt Elementary School,"K-3,P","1010 E National Rd, Vandalia, Ohio, 45377",(937) 415-6500,39.891988,-84.17689519999998
263,11155,Fairlawn Elementary School,"K-5,P","18800 Johnston Rd, Sidney, Ohio, 45365",(937) 492-5930,40.2664553,-84.07697449999998
264,2246,Bellevue High School,"9-12,SN","200 Oakland Ave, Bellevue, Ohio, 44811",(419) 484-5070,41.2816479,-82.8433632
265,3137,Bolton,"P,K-8","9803 Quebec Ave, Cleveland, Ohio, 44106",(216) 838-1200,41.494656,-81.619056
266,3632,Bristol Elementary School,K-6,"1845 State Route 88, Bristolville, Ohio, 44402",(330) 889-2700,41.3868144,-80.8667655
267,4028,Bryan Middle School/High School,6-12,"1000 W Fountain Grove Drive, Bryan, Ohio, 43506",(419) 636-4536,41.4575654,-84.5674214
268,3020,Bluffton Elementary School,K-5,"102 S Jackson St, Bluffton, Ohio, 45817",(419) 358-7951,40.8945821,-83.8929345
269,5868,Chapelfield Elementary School,K-5,"280 Chapelfield Rd, Gahanna, Ohio, 43230",(614) 478-5575,40.0267781,-82.88685759999998
270,6759,Cloverleaf High School,9-12,"8525 Friendsville Rd, Lodi, Ohio, 44254",(330) 948-2500,41.04065860000001,-81.9639696
271,2907,Bloom Carroll Primary School,K-2,"69 S Beaver Street, Carroll, Ohio, 43112",(740) 756-4326,39.7962256,-82.7003153
272,5256,Newton Falls Middle School,4-5,"905 Milton Blvd, Newton Falls, Ohio, 44444",(330) 872-0695,41.1775205,-80.95695140000002
273,5751,Chagrin Falls High School,9-12,"400 E Washington St, Chagrin Falls, Ohio, 44022",(440) 247-2583,41.4292662,-81.3796157
274,9928,Edgewood Elementary School,K-4,"203 Grove St, Marysville, Ohio, 43040",(937) 642-7801,40.2350248,-83.38202729999998
275,10926,Fairbanks High School,9-12,"11158 State Route 38, Milford Center, Ohio, 43045",(937) 349-3721,40.1615231,-83.39171540000002
276,11817,Fairborn Primary School,"K-3,P","4 W Dayton Yellow Springs Rd, Fairborn, Ohio, 45324",,39.791312100000006,-84.0261611
277,513,Columbus Scioto 6-12,6-12,"2951 S High St, Columbus, Ohio, 43207",(614) 365-5030,39.901558,-82.997692
278,1198,Seneca East High School,9-12,"13343 E US Highway 224, Attica, Ohio, 44807",(419) 426-3312,41.07886370000001,-82.91542439999998
279,1404,Avondale Elementary School,K-4,"3933 Eaton Rd NW, Canton, Ohio, 44708",(330) 491-3720,40.8314881,-81.4195058
280,1693,Batavia Elementary School,"K-5,P","3 Bulldog Pl, Batavia, Ohio, 45103",(513) 732-0780,39.0754517,-84.12494939999998
281,2584,Bethel-Tate Middle School,6-8,"649 W Plane St, Bethel, Ohio, 45106",(513) 734-2271,38.9644509,-84.09417599999998
282,3475,Brecksville-Broadview Heights Middle School,5-8,"6376 Mill Rd, Broadview Heights, Ohio, 44147",(440) 740-4400,41.329373800000006,-81.642606
283,3970,Brunswick High School,9-12,"3581 Center Rd, Brunswick, Ohio, 44212",(330) 273-0490,41.2420617,-81.816942
284,4366,Burton Elementary School,"K-6,P","13724 Carlton St, Burton, Ohio, 44021",(440) 834-4616,41.4686856,-81.1488206
285,4861,Cardington-Lincoln High School,9-12,"349 Chesterville Ave, Cardington, Ohio, 43315",(419) 864-2691,40.4947631,-82.8820637
286,6643,Cleveland Elementary School,"K-6,P","1102 Pursell Ave, Dayton, Ohio, 45420",(937) 542-4340,39.7451501,-84.1502297
287,7039,Columbia Middle School,5-8,"13646 W River Rd, Columbia Station, Ohio, 44028",(440) 236-5741,41.3160515,-81.92717429999998
288,7534,Covington High School,9-12,"807 Chestnut St, Covington, Ohio, 45318",(937) 473-3746,40.1191699,-84.34200600000001
289,8920,E A Powell Elementary School,K-6,"500 N Main St, North Baltimore, Ohio, 45872",(419) 257-2124,41.1873937,-83.67803719999998
290,10314,Martins Ferry Middle School,5-8,"5000 Ayers Limestone Rd, Martins Ferry, Ohio, 43935",(740) 633-9741,40.1107802,-80.72701719999998
291,11205,Fairmount Early Childhood Center,P,"24601 Fairmount Blvd, Beachwood, Ohio, 44122",(216) 292-2344,41.4873091,-81.5029761
292,11494,Felicity-Franklin Local  Elementary School,"H,P,K,1-4","105 Market St, Felicity, Ohio, 45120",(513) 362-5421,38.8354209,-84.09830199999998
293,11700,Firestone Park Elementary School,K-5,"1479 Girard St, Akron, Ohio, 44301",(330) 773-1308,41.0426554,-81.51569350000003
294,190,Buckeye West Elementary School,"K-6,P","243 N Mill St, Adena, Ohio, 43901",(740) 546-3413,40.2209666,-80.8707436
295,1081,Ashland High School,9-12,"1440 King Rd, Ashland, Ohio, 44805",(419) 289-7968,40.85453560000001,-82.3253498
296,968,Arlington Elementary School,K-8,"707 Woodsdale Ave, Toledo, Ohio, 43609",(419) 671-2550,41.6263357,-83.5861911
297,1859,Beacon Elementary School,K-5,"3600 Lacon Rd, Hilliard, Ohio, 43026",(614) 921-5200,40.0259414,-83.1332359
298,6809,Wellston Intermediate School,3-5,"225 Golden Rocket Dr, Wellston, Ohio, 45692",(740) 384-2060,39.1364571,-82.5359548
299,10769,Eastern High School,9-12,"11557 US Highway 62, Winchester, Ohio, 45697",(937) 695-9913,38.9550697,-83.73827870000002
300,356,Genoa Elementary,K-5,"2820 N Genoa Clay Center Rd, Genoa, Ohio, 43430",(419) 855-7741,41.5654008,-83.35853759999998
301,851,Apple Creek Elementary School,"K-6,P","173 W Main St, Apple Creek, Ohio, 44606",(330) 698-3111,40.7509726,-81.8385808
302,5801,Champion Central Elementary School,K-4,"5976 Mahoning Ave NW Ste B, Warren, Ohio, 44483",(330) 847-2315,41.31661629999999,-80.84926209999998
303,8763,Indian Hill Elementary School,3-5,"6100 Drake Rd, Cincinnati, Ohio, 45243",(513) 272-4703,39.1767745,-84.34460920000002
304,9159,Prospect Elementary School,K-3,"700 E Prospect St, Girard, Ohio, 44420",(330) 545-3854,41.15837,-80.68771199999998
305,10157,Elda Elementary School,K-4,"3980 Hamilton Cleves Rd, Hamilton, Ohio, 45013",(513) 738-1972,39.3196203,-84.6403375
306,10652,Erieview Elementary School,K-4,"32630 Electric Blvd, Avon Lake, Ohio, 44012",(440) 933-6282,41.5113074,-82.0121874
307,1743,Bath Elementary School,K-5,"2450 Bible Rd, Lima, Ohio, 45801",(419) 221-1837,40.7744989,-84.0595041
308,2139,Bellaire High School,9-12,"349 35th St, Bellaire, Ohio, 43906",(740) 676-3652,40.0175061,-80.74214190000002
309,2634,Betty Jane Community Learning Center,K-5,"444 Darrow Rd, Akron, Ohio, 44305",(330) 794-4117,41.0759598,-81.44298640000002
310,4416,Butler High School,9-12,"600 S Dixie Dr, Vandalia, Ohio, 45377",(937) 415-6300,39.8845888,-84.19738840000002
311,4911,Carlisle High School,9-12,"250 Jamaica Rd, Carlisle, Ohio, 45005",(937) 746-4481,39.58801830000001,-84.3224733
312,7260,Continental Local Elementary School,K-6,"5211 State Route 634, Continental, Ohio, 45831",(419) 596-3860,41.1068795,-84.26400029999998
313,8151,David Smith Elementary School,K-5,"355 N Liberty St, Delaware, Ohio, 43015",(740) 833-1350,40.31018710000001,-83.07262920000002
314,11049,Fairfield High School,10-12,"8800 Holden Blvd, Fairfield, Ohio, 45014",(513) 942-2999,39.336669,-84.5180408
315,12435,Fredericksburg Elementary School,K-8,"160 W Clay St, Fredericksburg, Ohio, 44627",(330) 695-2741,40.6756208,-81.87145389999998
316,1131,Ashville Elementary School,K-5,"90 Walnut St, Ashville, Ohio, 43103",(740) 983-5000,39.7154993,-82.9477448
317,2022,Bedford High School,9-12,"481 Northfield Rd, Bedford, Ohio, 44146",(440) 786-3522,41.403548,-81.526911
318,9043,East Knox Junior/Senior High School,7-12,"23227 Coshocton Rd, Howard, Ohio, 43028",(740) 599-7000,40.4093109,-82.32940769999998
319,10041,Edison High School,9-12,"2603 State Route 113 E, Milan, Ohio, 44846",(419) 499-4652,41.3009226,-82.57384770000002
320,10819,Euclid High School,8-12,"711 E 222nd St, Euclid, Ohio, 44123",(216) 797-7800,41.5965807,-81.52553890000002
321,406,Allen Elementary School,"K-2,P","1326 Sherrick Rd SE, Canton, Ohio, 44707",(330) 453-2782,40.78443789999999,-81.36426
322,901,Arcanum Elementary School,K-4,"2011 Trojan Ave, Arcanum, Ohio, 45304",(937) 692-5174,39.9953422,-84.54883620000003
323,3368,Bradford Elementary School,K-5,"740 Railroad Ave, Bradford, Ohio, 45308",(937) 448-2811,40.141276,-84.43277459999999
324,3863,Brookville High School,9-12,"1 Blue Pride Drive, Brookville, Ohio, 45309",(937) 833-6761,39.82824229999999,-84.420385
325,4754,W. S. Stinson Elementary School,3-5,"8454 Erie Ave NW, Canal Fulton, Ohio, 44614",(330) 854-4646,40.9006245,-81.60630549999998
326,7427,Coshocton High School,7-12,"1205 Cambridge Rd, Coshocton, Ohio, 43812",(740) 622-9433,40.2582311,-81.8456308
327,8318,Delhi Middle School,6-8,"5280 Foley Rd, Cincinnati, Ohio, 45238",(513) 922-8400,39.1046098,-84.61512420000003
328,8813,Dunbar Elementary School,K-2,"731 Dunbar Rd, Tallmadge, Ohio, 44278",(330) 633-4515,41.08027209999999,-81.4055427
329,9498,East Community Learning Center,7-12,"80 Brittain Rd, Akron, Ohio, 44305",(330) 761-7920,41.0640144,-81.46789199999998
330,9704,Eastview Elementary School,K-4,"1262 Eastview Dr, Mansfield, Ohio, 44905",(419) 589-7335,40.7931667,-82.4580916
331,10207,Miami East Elementary,K-5,"4025 North State Route 589, Casstown, Ohio, 45312",(937) 335-5439,40.087454,-84.11426600000001
332,10702,Coventry Middle School,5-8,"3257 Cormany Rd, Akron, Ohio, 44319",(330) 644-2232,41.0098703,-81.54846690000002
333,10991,Fairfield Freshman High School,9-11,"8790 N Gilmore Rd, Fairfield, Ohio, 45014",(513) 829-8300,39.338145,-84.51832320000003
334,83,Sandusky Middle School,7-8,"318 Columbus Ave, Sandusky, Ohio, 44870",(419) 984-1180,41.4541264,-82.70980139999998
335,3251,Boulevard Elementary School,K-5,"1749 Lee Rd, Cleveland Heights, Ohio, 44118",(216) 371-7140,41.5122714,-81.56624099999998
336,7310,Copley High School,9-12,"3807 Ridgewood Rd, Copley, Ohio, 44321",(330) 664-4822,41.112801,-81.649346
337,8201,Primary Elementary School,"K-2,P","478 Portland Way N, Galion, Ohio, 44833",(419) 468-4010,40.7396309,-82.8006758
338,8490,Dike School of Arts,"P,K-8","2501 E 61st St, Cleveland, Ohio, 44104",(216) 838-9150,41.4907618,-81.6470444
339,9381,Celina Primary School,K-2,"615 E Wayne St, Celina, Ohio, 45822",(419) 586-8300,40.5528667,-84.5662553
340,4143,Buckeye Valley Local High School,9-12,"901 Coover Rd, Delaware, Ohio, 43015",(740) 363-1349,40.348691,-83.091603
341,6379,Clarendon Elementary School,3-5,"412 Clarendon Ave NW, Canton, Ohio, 44708",(330) 453-7681,40.8034835,-81.40304189999998
342,6874,Colerain Elementary School,"K-5,P","499 E Weisheimer Rd, Columbus, Ohio, 43214",(614) 365-6001,40.0541933,-83.00685260000002
343,745,Anna Elementary School,K-5,"607 N Pike St, Anna, Ohio, 45302",(937) 394-2011,40.401433,-84.1754437
344,2527,Berwick Alternative K-8 School,"P,K-8","2655 Scottwood Rd, Columbus, Ohio, 43209",(614) 365-6140,39.9390507,-82.92435619999998
345,4598,Caledonia Elementary School,K-6,"914 Caledonia Ave, Cleveland Heights, Ohio, 44112",(216) 268-6690,41.5352207,-81.5619564
346,4804,Canterbury Elementary School,K-5,"2530 Canterbury Rd, Cleveland Heights, Ohio, 44118",(216) 371-7470,41.4915602,-81.55047259999998
347,5371,Central Elementary School,K-5,"145 Ray Ave NW, New Philadelphia, Ohio, 44663",(330) 364-0700,40.4935684,-81.44631
348,11932,Forest Hill Community Learning Center,K-5,"850 Damon St, Akron, Ohio, 44310",(330) 761-1645,41.09901560000001,-81.4944493
349,12328,Franklin Heights High School,9-12,"1001 Demorest Rd, Columbus, Ohio, 43204",(614) 801-3200,39.9326276,-83.09188379999998
350,1024,Arrowhead Primary Elementary School,K-4,"1600 Raleigh Blvd, Copley, Ohio, 44321",(330) 664-4885,41.091079,-81.63909
351,3301,Bowsher High School,9-12,"2200 Arlington Avenue, Toledo, Ohio, 43614",(419) 671-2000,41.624538,-83.5985032
352,3590,Buckeye North Elementary School,"K-6,P","1004 3rd St, Brilliant, Ohio, 43913",(740) 598-4589,40.2613118,-80.6327865
353,4481,C R Towslee Elementary School,K-5,"3555 Center Rd, Brunswick, Ohio, 44212",(330) 273-0487,41.2393174,-81.8134694
354,8045,Danbury Elementary School,K-4,"9451 E Harbor Rd, Lakeside Marblehead, Ohio, 43440",(419) 798-4081,41.536318,-82.754286
355,8540,Joshua Dixon Elementary School,"K-4,P","333 N Middle St, Columbiana, Ohio, 44408",(330) 482-5355,40.8945166,-80.6976481
356,9431,East Elementary School,K-6,"3 Wallace Dr, Athens, Ohio, 45701",(740) 593-6901,39.3346962,-82.0945845
357,3756,Brookfield Middle School,5-8,"614 Bedford Rd SE, Brookfield, Ohio, 44403",(330) 448-3003,41.2257896,-80.56142229999998
358,6429,Clark School,K-8,"5550 Clark Ave, Cleveland, Ohio, 44102",(216) 838-7300,41.4705078,-81.723948
359,7815,Croghan Elementary School,K-5,"1110 Chestnut St, Fremont, Ohio, 43420",(419) 332-1511,41.3468622,-83.0954008
360,8706,Dover Avenue Elementary School,4-5,"125 W 13th St, Dover, Ohio, 44622",(330) 364-7117,40.5327144,-81.48569350000002
361,8995,East Clinton High School,9-12,"174 Larrick Rd, Sabina, Ohio, 45169",(937) 584-2474,39.418323,-83.648484
362,9886,Edgerton Elementary School,"K-6,P","111 E River St, Edgerton, Ohio, 43517",(419) 298-2332,41.45573599999999,-84.74640989999997
363,10884,Evergreen High School,9-12,"14544 County Road 6, Metamora, Ohio, 43540",(419) 644-2951,41.680245,-83.973045
364,471,Sharpsburg Primary ,"K-2,P","4321 Forest Ave, Norwood, Ohio, 45212",(513) 924-2650,39.1561686,-84.4494179
365,1362,Avon Early Learning Center,"K,P","3075 Stoney Ridge Rd, Avon, Ohio, 44011",(440) 934-5124,41.4449531,-82.0272483
366,2253,Bellevue Middle School,6-8,"1035 Castalia St, Bellevue, Ohio, 44811",(419) 484-5060,41.28563060000001,-82.8383978
367,6312,Chippewa Jr./Sr. High School,7-12,"466 South Portage, Doylestown, Ohio, 44230",(330) 658-2011,40.9651188,-81.7051283
368,7203,Conneaut Elementary School,K-5,"542 Haskins Rd, Bowling Green, Ohio, 43402",(419) 354-0300,41.37986,-83.66235400000002
369,7492,Covedale School,K-6,"5130 Sidney Rd, Cincinnati, Ohio, 45238",(513) 363-1700,39.1242787,-84.6071412
370,8383,Denison,K-8,"3799 W 33rd St, Cleveland, Ohio, 44109",(216) 838-3250,41.451638,-81.70417499999998
371,9274,East Elementary School,2-3,"325 Betscher Ave, Dover, Ohio, 44622",(330) 364-7114,40.529538,-81.46836390000001
372,10272,Ellet High School,9-12,"309 Woolf Ave, Akron, Ohio, 44312",(330) 794-4120,41.0532797,-81.43295010000001
373,11163,Fairlawn High School,6-12,"18800 Johnston Rd, Sidney, Ohio, 45365",(937) 492-5930,40.2664553,-84.07697449999998
374,3640,Bristol High School,7-12,"1845 State Route 88, Bristolville, Ohio, 44402",(330) 889-2621,41.3868144,-80.8667655
375,5876,Chardon High School,8-12,"151 Chardon Ave, Chardon, Ohio, 44024",(440) 285-4057,41.591074,-81.199946
376,7658,Crestview High School,9-12,"44100 Crestview Rd Ste B, Columbiana, Ohio, 44408",(330) 482-4744,40.84539880000001,-80.66877590000001
377,638,Amherst Elementary School,K-5,"8750 Jane St NW, Massillon, Ohio, 44646",(330) 830-8024,40.8353669,-81.51463880000001
378,3806,Brook Park Memorial Elementary School,"K-4,P","16900 Holland Rd, Brook Park, Ohio, 44142",(216) 433-1350,41.396311,-81.818502
379,5264,Perry Elementary School,K-4,"1 Learning Ln, Perry, Ohio, 44081",(440) 259-9600,41.7734623,-81.13628829999998
380,6650,Brookwood Elementary School,K-6,"1325 Stahlheber Rd, Hamilton, Ohio, 45013",(513) 868-5590,39.419375,-84.606241
381,9936,Edgewood High School,9-12,"2428 Blake Rd, Ashtabula, Ohio, 44004",(440) 997-5301,41.8858812,-80.7309697
382,10439,Elmwood High School,9-12,"7650 Jerry City Rd, Bloomdale, Ohio, 44817",(419) 655-2583,41.255188,-83.5520465
383,1412,Ayersville Elementary School,K-4,"28046 Watson Rd, Defiance, Ohio, 43512",(419) 395-1111,41.2374156,-84.2843468
384,2097,Belden Elementary School,3-5,"2115 Georgetown Rd NE, Canton, Ohio, 44704",(330) 453-6902,40.7972156,-81.34828929999998
385,2303,Belmont High School,7-12,"2615 Wayne Ave, Dayton, Ohio, 45420",(937) 542-6460,39.7382414,-84.1561893
386,7542,Cox Elementary School,K-5,"506 Dayton Ave, Xenia, Ohio, 45385",(937) 372-9201,39.686508,-83.94519799999998
387,8433,Patrick Henry High School,9-12,"6900 State Route 18, Hamler, Ohio, 43524",(419) 274-3015,41.22599,-83.9960838
388,9324,Fort Recovery Middle School,6-8,"865 Sharpsburg Rd, Fort Recovery, Ohio, 45846",(419) 375-2815,40.407706,-84.7712933
389,976,Arlington Local Elementary School,K-6,"336 S Main St, Arlington, Ohio, 45814",(419) 365-5121,40.889062,-83.6522985
390,2758,Birmingham Elementary School,K-8,"2222 Bakewell St, Toledo, Ohio, 43605",(419) 671-7700,41.6626128,-83.4950652
391,5926,Charles L Warstler Elementary School,K-4,"2500 Schneider St NE, Canton, Ohio, 44721",(330) 491-3770,40.865696,-81.33766
392,7997,Dalton Elementary School,"K-4,P","250 N Church St, Dalton, Ohio, 44618",(330) 828-2707,40.8046042,-81.69828620000001
393,8888,Dunloe Elementary School,K-5,"3200 Dunloe Rd, Columbus, Ohio, 43232",(614) 833-2008,39.9112309,-82.857817
394,9779,Eastwood I High School,9-12,"4900 Sugar Ridge Rd, Pemberville, Ohio, 43450",(419) 833-3611,41.4277011,-83.4901203
395,10777,Etna Elementary School,4-5,"8500 Columbia Rd SW, Pataskala, Ohio, 43062",(740) 927-5906,39.9651612,-82.6966185
396,11668,Finneytown Secondary Campus  ,6-12,"8916 Fontainebleau Ter, Cincinnati, Ohio, 45231",(513) 931-0712,39.229156,-84.51559
397,364,Allen East High School,9-12,"9105 Harding Hwy, Harrod, Ohio, 45850",(419) 648-3333,40.73379600000001,-83.93127299999998
398,1255,Oakwood Elementary School,"K-6,P","309 N 1st St, Oakwood, Ohio, 45873",(419) 594-3346,41.09654000000001,-84.380263
399,1750,Bath High School,9-12,"2850 Bible Rd, Lima, Ohio, 45801",(419) 221-0366,40.77300959999999,-84.0522585
400,6494,Clay High School,9-12,"5665 Seaman St, Oregon, Ohio, 43616",(419) 693-0665,41.6529445,-83.41271689999998
401,6700,Northwest Primary School,K-2,"8436 Erie Ave NW, Canal Fulton, Ohio, 44614",(330) 854-5405,40.9006245,-81.60630549999998
402,9167,Mississinawa Valley Elementary School,K-6,"10480 Staudt Rd, Union City, Ohio, 45390",(937) 968-4464,40.22180510000001,-84.7468401
403,10660,North Royalton High School,9-12,"14713 Ridge Rd, North Royalton, Ohio, 44133",(440) 582-7801,41.30908669999999,-81.73340309999998
404,11056,Fairfield Local High School,9-12,"11611 State Route 771, Leesburg, Ohio, 45135",(937) 780-2966,39.3288078,-83.5466597
405,11551,Field High School,9-12,"2900 State Route 43, Mogadore, Ohio, 44260",(330) 673-9591,41.0681459,-81.345074
406,2147,Bellbrook Middle School,6-8,"3600 Feedwire Rd, Bellbrook, Ohio, 45305",(937) 848-2141,39.66107879999999,-84.0718613
407,2642,Beverly Elementary School,K-8,"3548 S Detroit Ave, Toledo, Ohio, 43614",(419) 671-2600,41.6016983,-83.6094822
408,3038,Bluffton High School,9-12,"106 W College Ave, Bluffton, Ohio, 45817",(419) 358-7941,40.892978,-83.8938452
409,12443,Fredericktown Elementary School,K-5,"111 Stadium Drive, Fredericktown, Ohio, 43019",(740) 694-2781,40.475551,-82.553731
410,5769,Chagrin Falls Middle School,7-8,"342 E Washington St, Chagrin Falls, Ohio, 44022",(440) 247-4746,41.426818,-81.380651
411,1917,Beatty Park Elementary School,K-5,"519 Trevitt St, Columbus, Ohio, 43203",(614) 365-6074,39.97633560000001,-82.9714937
412,3988,Midview North Elementary School,K-2,"13070 Durkee Rd, Grafton, Ohio, 44044",(440) 748-6869,41.29910200000001,-82.05765090000001
413,4879,Cardington-Lincoln Elementary School,"K-4,P","121 Nichols St, Cardington, Ohio, 43315",(419) 864-6692,40.49616870000001,-82.8919429
414,5157,Chestnut Elementary School,K-5,"341 Chestnut St, Painesville, Ohio, 44077",(440) 392-5350,41.7046252,-81.255411
415,9829,Echo Hills Elementary School,K-4,"4405 Stow Rd, Stow, Ohio, 44224",(330) 689-5450,41.18121970000001,-81.4258324
416,10827,Evamere Elementary School,K-1,"76 N Hayden Pkwy, Hudson, Ohio, 44236",(330) 653-1226,41.2430434,-81.4285565
417,12609,Fort Island Primary Elementary School,K-4,"496 Trunko Rd, Fairlawn, Ohio, 44333",(330) 664-4890,41.1203292,-81.6258814
418,1099,Ashland Middle School,6-8,"1520 King Rd, Ashland, Ohio, 44805",(419) 289-7966,40.85222520000001,-82.32523760000002
419,1594,Barnesville Elementary School,K-4,"210 W Church St, Barnesville, Ohio, 43713",(740) 425-3639,39.9887071,-81.17862559999998
420,1800,Bay Middle School,5-8,"27725 Wolf Rd, Bay Village, Ohio, 44140",(440) 617-7600,41.484162,-81.92661100000002
421,2485,Edison Middle School (formerly Berlin-Milan Middle School),4-8,"20 Center St, Berlin Heights, Ohio, 44814",(419) 588-2078,41.3238657,-82.4913444
422,2980,E J Blott Elementary School,K-4,"4115 Shady Rd, Youngstown, Ohio, 44505",(330) 759-1053,41.1573084,-80.6566526
423,3376,Bradford High School,6-12,"750 Railroad Ave, Bradford, Ohio, 45308",(937) 448-2719,40.1414277,-84.43275729999998
424,4267,Paul C Bunn Elementary School,"P,K-8","1825 Sequoya Dr, Youngstown, Ohio, 44514",(330) 744-8963,41.047691,-80.623403
425,6049,Cherrington Elementary School,K-5,"522 Cherrington Rd, Westerville, Ohio, 43081",(614) 797-7050,40.114384,-82.90795299999998
426,7930,Cuyahoga Falls High School,9-12,"2300 4th St, Cuyahoga Falls, Ohio, 44221",(330) 926-3808,41.1394062,-81.4874655
427,8326,Carrollton Elementary School,"K-5,P","252 3rd St NE, Carrollton, Ohio, 44615",(330) 627-4592,40.5732645,-81.08253690000002
428,8821,Dunbar Early College High School,9-12,"1400 Albritton Dr, Dayton, Ohio, 45408",(937) 542-6760,39.734241,-84.23210300000002
429,9712,Eastview Elementary School,K-4,"230 Lear Rd, Avon Lake, Ohio, 44012",(440) 933-6283,41.5036833,-81.9895449
430,10215,Elizabeth Price Elementary School,K-5,"2610 Delmore St, Cuyahoga Falls, Ohio, 44221",(330) 926-3806,41.1353926,-81.4644311
431,11106,Fairland East Elementary School,K-2,"10732 County Road 107, Proctorville, Ohio, 45669",(740) 886-3120,38.4621523,-82.3189457
432,11395,Valley View Intermediate School,"P,4-6","64 Comstock St, Germantown, Ohio, 45327",(937) 855-4203,39.6297558,-84.37203000000002
433,11601,Struthers Middle School,5-8,"800 5th St, Struthers, Ohio, 44471",(330) 755-1064,41.0487023,-80.6029422
434,12286,Franklin Elementary School,K-4,"200 Takacs Dr, Wadsworth, Ohio, 44281",(330) 335-1470,41.0130153,-81.7254439
435,5041,Carylwood Intermediate School,4-6,"1387 Caryl Dr, Bedford, Ohio, 44146",(440) 439-4509,41.375817,-81.51627859999998
436,5819,Champion High School,9-12,"5976 Mahoning Ave NW, Warren, Ohio, 44483",(330) 847-2305,41.316068,-80.85129609999998
437,6999,Colonial Hills Elementary School,K-6,"5800 Greenwich St, Worthington, Ohio, 43085",(614) 450-5400,40.0823425,-83.00852479999998
438,257,Alexander Elementary School,"K-5,P","6105 School Road, Albany, Ohio, 45710",(740) 698-8831,39.2257046,-82.2066378
439,752,Anna High School,9-12,"1 McRill Way, Anna, Ohio, 45302",(937) 394-2011,40.40144009999999,-84.1753203
440,4929,Alden R Brown Elementary School,K-2,"310 Jamaica Rd, Carlisle, Ohio, 45005",(937) 746-7610,39.5861169,-84.3222264
441,5207,Celina High School,9-12,"715 E Wayne St, Celina, Ohio, 45822",(419) 586-8300,40.5528667,-84.5662553
442,5496,Central Elementary School,K-4,"124 Frederick St, Lexington, Ohio, 44904",(419) 884-1308,40.675213,-82.5845963
443,6387,Watkins Elementary School,"K-5,P","1520 Watkins Rd, Columbus, Ohio, 43207",(614) 365-6411,39.90540170000001,-82.95427269999998
444,6882,Colerain Elementary School,K-5,"4850 Poole Rd, Cincinnati, Ohio, 45251",(513) 385-8740,39.23972819999999,-84.6143463
445,7278,Continental Local High School,7-12,"5211 State Route 634, Continental, Ohio, 45831",(419) 596-3871,41.1068795,-84.26400029999998
446,7773,Crim Elementary School,K-5,"1020 Scott Hamilton Ave, Bowling Green, Ohio, 43402",(419) 354-0400,41.37052389999999,-83.6366303
447,9555,East Technical High School,9-12,"2439 E 55th St, Cleveland, Ohio, 44104",(216) 838-1000,41.4924064,-81.6499118
448,10058,Edison Middle School,7-8,"4201 13th St SW, Massillon, Ohio, 44646",(330) 478-6167,40.789897,-81.464433
449,1149,Athens High School,9-12,"1 High School Rd, The Plains, Ohio, 45780",(740) 797-4521,39.3724446,-82.12800379999999
450,1644,Barrington Road Elementary School,K-5,"1780 Barrington Rd, Upper Arlington, Ohio, 43221",(614) 487-5180,40.000141,-83.05656599999998
451,4317,Burlington Elementary School,K-5,"8781 County Road 1, South Point, Ohio, 45680",(740) 894-4230,38.4151771,-82.5061819
452,4812,Canton South High School,9-12,"600 Faircrest St SE, Canton, Ohio, 44707",(330) 484-8000,40.7484989,-81.37177009999998
453,7161,Concord Elementary School,K-5,"3145 State Route 718, Troy, Ohio, 45373",(937) 332-6730,40.04003,-84.2613547
454,8052,Danbury High School,9-12,"9451 E Harbor Rd, Lakeside Marblehead, Ohio, 43440",(419) 798-4037,41.536318,-82.754286
455,141,Addaville Elementary School,"K-5,P","1333 Brick School Rd, Gallipolis, Ohio, 45631",(740) 367-7283,38.90532779999999,-82.17206949999998
456,4200,Pugliese Elementary West,"P,K,1-4,SN","435 John Scott Hwy Connector, Steubenville, Ohio, 43952",(740) 264-1590,40.3712088,-80.6700444
457,919,Arcanum High School,9-12,"2011 Trojan Ave, Arcanum, Ohio, 45304",(937) 692-5174,39.9953422,-84.54883620000003
458,596,Amelia Elementary School,K-5,"5 E Main St, Amelia, Ohio, 45102",(513) 943-3800,39.03022960000001,-84.2152517
459,802,Anthony Wayne Elementary School,1-6,"16 Farm Ave, Franklin, Ohio, 45005",(937) 743-8640,39.5533841,-84.31195319999998
460,1982,Beavertown Elementary School,K-5,"2700 Wilmington Pike, Kettering, Ohio, 45419",(937) 499-1740,39.7073646,-84.14144999999998
461,2378,Benjamin Franklin ,"P,K-8","1905 Spring Rd, Cleveland, Ohio, 44109",(216) 838-3150,41.4344395,-81.6938772
462,2873,South Webster Jr/Sr High School,7-12,"10529 Main St, South Webster, Ohio, 45682",(740) 778-2320,38.81724060000001,-82.7341642
463,6932,College Hill Fundamental Academy,"K-6,P","1625 Cedar Ave, Cincinnati, Ohio, 45224",(513) 363-1600,39.1980434,-84.54829459999998
464,7328,Copley-Fairlawn Middle School,5-8,"1531 S Cleveland Massillon Rd, Copley, Ohio, 44321",(330) 664-4875,41.096272,-81.64307450000003
465,7823,Crooksville High School,9-12,"4075 Ceramic Way, Crooksville, Ohio, 43731",(740) 982-7015,39.74442670000001,-82.0884183
466,8219,Dawson-Bryant High School,9-12,"1 Hornet Ln, Coal Grove, Ohio, 45638",(740) 532-6345,38.5031842,-82.64587209999998
467,9894,Edgerton High School,7-12,"111 E River St, Edgerton, Ohio, 43517",(419) 298-2331,41.45573599999999,-84.74640989999997
468,10108,Edon Elementary School,K-6,"802 W Indiana St, Edon, Ohio, 43518",(419) 272-3213,41.558151,-84.781086
469,10603,Englewood Hills Elementary School,2-6,"508 Durst Dr, Englewood, Ohio, 45322",(937) 832-5950,39.859566,-84.3046444
470,11288,Fairview High School,9-12,"6289 Us Highway 127, Sherwood, Ohio, 43556",(419) 658-2378,41.34907000000001,-84.552018
471,11783,Olmsted Falls Intermediate Building,4-5,"27043 Bagley Rd, Olmsted Falls, Ohio, 44138",(440) 427-6500,41.3698494,-81.93512919999998
472,1370,Avon High School,9-12,"37545 Detroit Rd, Avon, Ohio, 44011",(440) 934-6171,41.444481,-82.03663399999998
473,3152,Bond Hill Academy,"K-6,P","1510 California Ave, Cincinnati, Ohio, 45237",(513) 363-7900,39.176674,-84.471655
474,6320,Circleville High School,9-12,"380 Clark Dr, Circleville, Ohio, 43113",(740) 474-4846,39.6077965,-82.9218418
475,7211,Conneaut High School,9-12,"381 Mill St, Conneaut, Ohio, 44030",(440) 593-7210,41.9467423,-80.56172620000002
476,8102,Darbydale Elementary School,"H,K,1-4","7000 London Groveport Rd, Grove City, Ohio, 43123",(614) 801-8050,39.8535403,-83.18662549999998
477,8391,Dentzler Elementary School,K-4,"3600 Dentzler Rd, Parma, Ohio, 44134",(440) 885-2430,41.3714427,-81.71055240000003
478,9282,Hollingsworth East Elementary School,K-2,"506 Aukerman St, Eaton, Ohio, 45320",(937) 456-5173,39.74939699999999,-84.62602199999998
479,11171,Fairless High School,9-12,"11885 Navarre Rd SW, Navarre, Ohio, 44662",(330) 767-3444,40.7038755,-81.58448200000002
480,4044,Bryden Elementary School,K-2,"25501 Bryden Rd, Beachwood, Ohio, 44122",(216) 831-3933,41.4691187,-81.5003105
481,5884,Chardon Middle School,4-7,"424 North St, Chardon, Ohio, 44024",(440) 285-4062,41.5905546,-81.20445720000002
482,6775,North College Hill Elementary School,"K-4,P","6955 Grace Ave, North College Hill, Ohio, 45239",(513) 728-4787,39.2186014,-84.55478029999998
483,7666,Crestview High School,9-12,"531 E Tully St, Convoy, Ohio, 45832",(419) 749-9100,40.9167516,-84.70161259999998
484,8557,Eaton Middle School,6-8,"602 Hillcrest Dr, Eaton, Ohio, 45320",(937) 456-2286,39.7329385,-84.64556309999998
485,1537,Barber Community Learning Center,K-6,"665 Garry Rd, Akron, Ohio, 44305",(330) 761-7911,41.0827049,-81.474734
486,2923,Edgewood Elementary School,2-5,"3440 Busenbark Rd, Trenton, Ohio, 45067",(513) 867-7430,39.4753869,-84.48804809999999
487,4994,Bloom-Carroll High School,9-12,"5240 Plum Road NW, Carroll, Ohio, 43112",(740) 756-4318,39.79171789999999,-82.6958339
488,7054,Columbian High School,9-12,"300 S Monroe St, Tiffin, Ohio, 44883",(419) 447-6331,41.1090652,-83.17978570000002
489,9944,Wallace H Braden Middle School,6-8,"3436 Edgewood Dr, Ashtabula, Ohio, 44004",(440) 998-0550,41.8735078,-80.7710613
490,10447,Elmwood Place Elementary School,K-6,"400 Maple St, Cincinnati, Ohio, 45216",(513) 482-7115,39.1880581,-84.4880429
491,12229,Ben Franklin Elementary School,K-5,"533 Beacon Rd, Newark, Ohio, 43055",(740) 670-7340,40.044354,-82.3969
492,1420,Ayersville High School,9-12,"28046 Watson Rd, Defiance, Ohio, 43512",(419) 395-1111,41.2374156,-84.2843468
493,2311,Damascus Elementary,K-4,"14405 Pricetown Road, Salem, Ohio, 44460",(330) 938-4500,40.9094662,-80.9549773
494,3202,Woodridge Middle School,"6-8,UNG","4451 Quick Rd, Peninsula, Ohio, 44264",(330) 928-7420,41.19408060000001,-81.50899299999998
495,3491,Brent Elementary School,K-1,"8791 Brent Dr, Cincinnati, Ohio, 45231",(513) 728-3720,39.2269099,-84.511062
496,8441,DeVeaux Elementary School,K-8,"2620 W Sylvania Ave, Toledo, Ohio, 43613",(419) 671-3200,41.6933002,-83.60788889999998
497,12112,River's Edge Montessori Elementary School,K-6,"108 Linwood St, Dayton, Ohio, 45405",(937) 542-4640,39.7666537,-84.1909998
498,489,Almira,K-8,"3375 W 99th St, Cleveland, Ohio, 44102",(216) 838-6150,41.4616658,-81.75169759999999
499,1875,Beallsville Elementary School,"K-6,P","43824 SR 556, Beallsville, Ohio, 43716",(740) 926-1435,39.8469221,-81.02394659999999
500,2766,Samuel Bissell Elementary School,2-3,"1811 Glenwood Dr, Twinsburg, Ohio, 44087",(330) 486-2100,41.3415027,-81.46435809999998
501,3657,Britton Elementary School,K-5,"4501 Britton Rd, Hilliard, Ohio, 43026",(614) 921-5300,40.051707,-83.136836
502,5439,Willard Elementary School ,"K-5,P","One Flashes Avenue, Willard, Ohio, 44890",(419) 935-5341,41.0460886,-82.7297708
503,7716,Crestwood Elementary School,K-5,"42331 Griswold Rd, Elyria, Ohio, 44035",(440) 284-8002,41.3977702,-82.14318540000002
504,8607,Donnell Middle School,6-8,"301 Baldwin Ave, Findlay, Ohio, 45840",(419) 425-8370,41.0263763,-83.6532127
505,8896,Durling Middle School,5-8,"100 N Ridge Rd W, Lorain, Ohio, 44053",(440) 233-6869,41.4273333,-82.1666892
506,9787,Lee Eaton Elementary School,5-6,"115 Ledge Rd, Northfield, Ohio, 44067",(330) 467-0582,41.3365488,-81.52710929999998
507,10785,Etna Road Elementary School,2-5,"4531 Etna Rd, Whitehall, Ohio, 43213",(614) 417-5400,39.963493,-82.8790099
508,11676,Firelands Elementary School,K-5,"10779 Vermilion Rd, Oberlin, Ohio, 44074",(440) 965-5381,41.3346133,-82.2986343
509,12567,Frontier High School,9-12,"44870 State Route 7, New Matamoras, Ohio, 45767",(740) 865-3441,39.4465993,-81.1435293
510,2154,Bellbrook High School,9-12,"3737 Upper Bellbrook Rd, Bellbrook, Ohio, 45305",(937) 848-3737,39.652728,-84.0677985
511,4549,Beaver Local Elementary School,K-4,"46088 Bell School Rd, East Liverpool, Ohio, 43920",(330) 386-8700,40.7106482,-80.6303345
512,5322,Centerville High School,"9-12,SN","500 E Franklin St, Centerville, Ohio, 45459",(937) 439-3500,39.6269909,-84.1482953
513,6213,Chestnut Ridge Elementary School,K-8,"5088 TR 401, Berlin, Ohio, 44610",(330) 893-2413,40.5608106,-81.79946970000002
514,7104,Columbus Grove High School,9-12,"201 W Cross St, Columbus Grove, Ohio, 45830",(419) 659-2156,40.9216636,-84.0560854
515,8284,Dawson-Bryant Elementary School,K-5,"4503 State Route 243, Ironton, Ohio, 45638",(740) 532-6898,38.5040246,-82.5818815
516,10173,Elgin High School,9-12,"1150 Keener Rd S, Marion, Ohio, 43302",(740) 383-5118,40.569214,-83.244939
517,11064,Bremen Elementary School,K-4,"210 Strayer Ave, Bremen, Ohio, 43107",(740) 569-4135,39.6996378,-82.4338243
518,12450,Fredericktown High School,9-12,"111 Stadium Dr, Fredericktown, Ohio, 43019",(740) 694-2726,40.475551,-82.553731
519,3046,Wapakoneta Middle School,5-7,"400 W Harrison St, Wapakoneta, Ohio, 45895",(419) 739-5100,40.5732802,-84.2013633
520,4432,Byesville Elementary School,K-2,"212 Main St, Byesville, Ohio, 43723",(740) 685-2523,39.970402,-81.53537999999998
521,5777,Chalker High School,9-12,"2482 State Route 534, Southington, Ohio, 44470",(330) 898-7480,41.28401220000001,-80.9596478
522,7559,Coy Elementary School,K-4,"3604 Pickle Rd, Oregon, Ohio, 43616",(419) 693-0624,41.6294454,-83.4611939
523,539,Amanda-Clearcreek Elementary School,3-5,"328 E Main St, Amanda, Ohio, 43102",(740) 969-7253,39.6496392,-82.7348828
524,1925,Columbus Spanish Immersion K-6 School,K-6,"3940 Karl Rd, Columbus, Ohio, 43224",(614) 365-8129,40.0474781,-82.97510539999998
525,3707,Broadway Elementary School,2-3,"223 W Broadway St, Tipp City, Ohio, 45371",(937) 667-6216,39.9595876,-84.17535290000002
526,3996,Brush High School,9-12,"4875 Glenlyn Rd, Lyndhurst, Ohio, 44124",(216) 691-2065,41.5220323,-81.5052972
527,4887,Carey High School,6-12,"2016 Blue Devil Drive, Carey, Ohio, 43316",(419) 396-7638,40.94534760000001,-83.38726129999998
528,5165,Cedarville Elementary School,K-5,"194 Walnut St, Cedarville, Ohio, 45314",(937) 766-3811,39.7479302,-83.80492939999998
529,5660,Lima North Middle School,5-6,"1135 N West St, Lima, Ohio, 45801",(419) 996-3100,40.7579544,-84.10937100000002
530,6056,Rosa Parks Elementary School,K-8,"3350 Cherry St, Toledo, Ohio, 43608",(419) 671-4350,41.6832293,-83.5519042
531,6551,Clear Fork High School,9-12,"987 State Route 97 E, Bellville, Ohio, 44813",(419) 886-2601,40.6102028,-82.47476800000003
532,8946,East Elementary School,K-5,"401 N 3rd St, Upper Sandusky, Ohio, 43351",(419) 294-2396,40.8320131,-83.2762906
533,1313,Craddock Elementary School,1-2,"105 Hurd Rd, Aurora, Ohio, 44202",(330) 562-3175,41.3161928,-81.34154769999998
534,2493,Berne Union Elementary School,"K-6,P","506 N Main St, Sugar Grove, Ohio, 43155",(740) 746-9668,39.629482,-82.54597799999998
535,4770,Canal Winchester High School,9-12,"300 Washington St, Canal Winchester, Ohio, 43110",(614) 833-2157,39.8367474,-82.81314189999998
536,8334,Delta Elementary School,K-4,"1099 Panther Pride Drive, Delta, Ohio, 43515",(419) 822-5630,41.5796901,-83.99441479999999
537,9225,Rossford Elementary School,"K-5,P","28500 Lime City Rd, Rossford, Ohio, 43460",(419) 666-8130,41.5907521,-83.56812339999998
538,9720,Revere Middle School,6-8,"3195 Spring Valley Rd, Akron, Ohio, 44333",(330) 666-4155,41.1987005,-81.617037
539,11114,Fairland High School,9-12,"812 County Road 411, Proctorville, Ohio, 45669",(740) 886-3250,38.4481263,-82.35688640000002
540,12500,Fremont Ross High School,9-12,"1100 North St, Fremont, Ohio, 43420",(419) 332-8221,41.36247520000001,-83.12359959999998
541,877,Applewood Elementary School,K-5,"3891 Applewood Dr, Brunswick, Ohio, 44212",(330) 273-0481,41.2246688,-81.8267911
542,1768,Bath Middle School,6-8,"2700 Bible Rd, Lima, Ohio, 45801",(419) 221-1839,40.7735443,-84.05498329999998
543,2659,Beverly-Center Elementary School,K-6,"510 5th St, Beverly, Ohio, 45715",(740) 984-2371,39.5485269,-81.6292811
544,5827,Champion Middle School,6-8,"284 N 22nd St, Columbus, Ohio, 43203",(614) 365-6082,39.9717191,-82.97040179999998
545,7609,Creekview Elementary School,"K-5,P","4800 Timber Trail Dr, Middletown, Ohio, 45044",(513) 420-4544,39.5051605,-84.34338309999998
546,7898,Currie Elementary School,K-2,"3306 Ridge Rd, Cortland, Ohio, 44410",(330) 637-2976,41.30842699999999,-80.68725400000002
547,8789,Driscoll Elementary School,2-5,"5767 Marshall Rd, Dayton, Ohio, 45429",(937) 434-0562,39.6619855,-84.1488724
548,11569,Field Middle School,6-8,"1379 Saxe Rd, Mogadore, Ohio, 44260",(330) 673-4176,41.0673184,-81.34375870000002
549,265,Albion Elementary School,K-4,"9360 Albion Rd, North Royalton, Ohio, 44133",(440) 582-9060,41.3372519,-81.75588509999999
550,760,Ansonia Elementary School,K-6,"600 E Canal St, Ansonia, Ohio, 45303",(937) 337-5141,40.2156648,-84.6288493
551,4937,Bobby F. Grigsby Intermediate School,3-5,"100 Jamaica Rd, Carlisle, Ohio, 45005",(937) 746-8969,39.590522,-84.320452
552,5710,Wadsworth Middle School,7-8,"150 Silvercreek Rd, Wadsworth, Ohio, 44281",(330) 335-1410,41.024034,-81.70386479999998
553,6601,Clearmount Elementary School,K-2,"150 Clearmount Ave SE, North Canton, Ohio, 44720",(330) 497-5640,40.8740659,-81.3908257
554,6890,Colerain High School,9-12,"8801 Cheviot Rd, Cincinnati, Ohio, 45251",(513) 385-6424,39.2323645,-84.60267549999998
555,7286,Coventry High School,9-12,"1135 Portage Lakes Dr, Akron, Ohio, 44319",(330) 644-3004,41.0064399,-81.553558
556,8672,Johnstown Elementary School,K-5,"200 Leafy Dell Road, Johnstown, Ohio, 43031",(740) 967-5461,40.1626384,-82.6844
557,11452,Fayetteville-Perry Elementary School,"K-5,P","601 S Apple St, Fayetteville, Ohio, 45118",(513) 875-2083,39.1820825,-83.9318845
558,2048,Beechwood Elementary School,2-5,"455 Beechwood Rd, Whitehall, Ohio, 43213",(614) 417-5300,39.965955,-82.894712
559,2543,Bethel Elementary School,K-5,"7490 State Route 201, Tipp City, Ohio, 45371",(937) 845-9439,39.9190184,-84.0862684
560,3434,Summerside Elementary,K-5,"4639 Vermona Dr, Cincinnati, Ohio, 45245",(513) 943-6400,39.1116885,-84.2836944
561,8060,Daniel E Morgan School,"P,K-8","8912 Morris Ct, Cleveland, Ohio, 44106",(216) 838-1400,41.516936,-81.625275
562,1040,Artemus Ward,"P,K-8","4315 W 140th St, Cleveland, Ohio, 44135",(216) 838-6200,41.436373,-81.7901858
563,927,Archbold Elementary School,K-4,"500 Lafayette St, Archbold, Ohio, 43502",(419) 446-2727,41.516236600000006,-84.3100845
564,1818,Lakeview Elementary School,K-4,"2755 Bazetta Rd NE, Warren, Ohio, 44481",(330) 638-2145,41.2927766,-80.7797178
565,2709,Big Walnut High School,9-12,"555 S Old 3c Rd, Sunbury, Ohio, 43074",(740) 965-3766,40.234464,-82.858173
566,2998,Blue Ash Elementary,K-4,"9541 Plainfield Rd, Cincinnati, Ohio, 45236",(513) 686-1710,39.23178619999999,-84.3990573
567,7948,Cuyahoga Hts Elementary School,"K-5,P","4880 E 71st St, Cuyahoga Heights, Ohio, 44125",(216) 429-5880,41.4261927,-81.64364669999998
568,8839,Duncan Falls Elementary School,"K-5,P","397 Oak St, Duncan Falls, Ohio, 43734",(740) 674-5211,39.877251,-81.91196099999998
569,11619,Highland Elementary School,K-6,"1125 Main St, Hamilton, Ohio, 45013",(513) 868-5620,39.4147875,-84.5855349
570,315,Alexander Jr. / Sr. High School,6-12,"6125 School Rd, Albany, Ohio, 45710",(740) 698-8831,39.22512920000001,-82.20319079999999
571,810,Anthony Wayne High School,9-12,"5967 Finzel Rd, Whitehouse, Ohio, 43571",(419) 877-0466,41.533359,-83.7791617
572,1206,Waterloo Elementary School,K-5,"1464 Industry Rd, Atwater, Ohio, 44201",(330) 947-2153,41.028547,-81.193022
573,1701,Batavia High School,9-12,"1 Bull Dog Pl, Batavia, Ohio, 45103",(513) 732-2341,39.0732811,-84.1290199
574,3277,Conotton Valley Elementary,"K-5,P","7205 Cumberland Rd SW, Bowerston, Ohio, 44695",,40.46303,-81.21882099999998
575,6940,Collinwood High School,9-12,"15210 Saint Clair Ave, Cleveland, Ohio, 44110",(216) 838-0500,41.55305120000001,-81.57408099999998
576,7336,Copopa Elementary School,K-4,"13644 W River Rd, Columbia Station, Ohio, 44028",(440) 236-5020,41.31602669999999,-81.9276308
577,8227,Dawson-Bryant Middle School,6-8,"1 Hornet Ln, Coal Grove, Ohio, 45638",(740) 532-1664,38.5031842,-82.64587209999998
578,8722,Dover High School,9-12,"520 N Walnut St, Dover, Ohio, 44622",(330) 364-7148,40.5233054,-81.4817046
579,9118,Jesse Beer - Madison Early Childhood Learning Center,P,"103 Bahl Ave, Mansfield, Ohio, 44905",(419) 589-7851,40.7551134,-82.4879935
580,9613,Easthaven Elementary School,"K-5,P","2360 Garnet Pl, Columbus, Ohio, 43232",(614) 365-6149,39.92376270000001,-82.9068707
581,10611,Indian Valley Intermediate School,2-6,"510 Enon Xenia Pike, Enon, Ohio, 45323",(937) 864-7348,39.8640471,-83.9355215
582,11007,Fairfield Elementary School,K-3,"1313 Eastfield Dr, Maumee, Ohio, 43537",(419) 893-9821,41.5798441,-83.65097039999998
583,11502,Felicity-Franklin Local  High School,9-12,"105 Market St, Felicity, Ohio, 45120",(513) 362-5330,38.8354209,-84.09830199999998
584,11791,Fitch High School,9-12,"4560 Falcon Dr, Youngstown, Ohio, 44515",(330) 797-3900,41.092355,-80.739023
585,8110,Gilbert A. Dater High School,7-12,"2146 Ferguson Rd, Cincinnati, Ohio, 45238",(513) 363-7200,39.12497800000001,-84.60130199999998
586,9001,East Columbus Elementary School,"K-5,P","3100 E. 7th Ave, Columbus, Ohio, 43219",(614) 365-6147,39.98649169999999,-82.9211867
587,11957,Forest Park Elementary School,K-5,"5535 Sandalwood Blvd, Columbus, Ohio, 43229",(614) 365-5337,40.0799294,-82.98182419999998
588,653,Amity Elementary School,K-6,"4320 E Galbraith Rd, Cincinnati, Ohio, 45236",(513) 891-5995,39.2084597,-84.3934161
589,5397,Napoleon Elementary School,"K-6,P","725 Westmoreland Ave, Napoleon, Ohio, 43545",(419) 599-1851,41.3891519,-84.1534786
590,5892,Charles A Mooney School,K-8,"3213 Montclair Ave, Cleveland, Ohio, 44109",(216) 838-3200,41.435315,-81.7058114
591,6783,McPherson Middle School,5-8,"4230 Limerick Rd, Clyde, Ohio, 43410",(419) 547-9150,41.288101,-82.969655
592,7674,Crestview High School,9-12,"1575 State Route 96, Ashland, Ohio, 44805",(419) 895-1700,40.8907203,-82.4573576
593,10454,Ely Elementary School,K-5,"312 Gulf Rd, Elyria, Ohio, 44035",(440) 284-8005,41.3760502,-82.0949248
594,1545,Barberton High School,9-12,"555 Barber Rd, Barberton, Ohio, 44203",(330) 753-1084,41.0261589,-81.60749009999998
595,2436,Berkshire High School,7-12,", Burton, Ohio, 44021",(440) 834-4110,41.47060889999999,-81.1450995
596,3822,Brookside Elementary School,K-6,"6700 Mcvey Blvd, Columbus, Ohio, 43235",(614) 450-5300,40.10148289999999,-83.05778339999998
597,4218,Brook Intermediate School,3-5,"58601 Marietta Rd, Byesville, Ohio, 43723",(740) 685-2526,39.9495601,-81.5585947
598,4713,Ironton Middle School,6-8,"302 Delaware St, Ironton, Ohio, 45638",(740) 532-3347,38.5531855,-82.70663909999998
599,5280,Centerburg Elementary School,K-5,"207 S Preston St, Centerburg, Ohio, 43011",(740) 625-6488,40.299446,-82.696083
600,7062,Columbiana High School,9-12,"700 Columbiana Waterford Rd, Columbiana, Ohio, 44408",(330) 482-3818,40.88137,-80.67881209999999
601,11346,Fallen Timbers Middle School,5-6,"6119 Finzel Rd, Whitehouse, Ohio, 43571",(419) 877-0601,41.5297256,-83.77957640000002
602,3210,Botkins Elementary School,K-6,"404 E State St, Botkins, Ohio, 45306",(937) 693-4241,40.4688865,-84.17961439999998
603,4101,Buckeye Elementary School,K-5,"175 Buckeye Rd, Painesville, Ohio, 44077",,41.7007891,-81.26288749999998
604,4390,Butler Elementary School,"K-5,P","125 College St, Butler, Ohio, 44822",(419) 883-3451,40.590616,-82.429053
605,9340,Mt. Pleasant Elementary School,K-5,"712 N Broad St, Lancaster, Ohio, 43130",(740) 687-7338,39.7216162,-82.5999446
606,12120,Franklin Elementary School,K-4,"310 E 4th St, Delphos, Ohio, 45833",(419) 692-8766,40.8462728,-84.336621
607,208,Adena High School,9-12,"3367 County Road 550, Frankfort, Ohio, 45628",(740) 998-2313,39.4156613,-83.19461559999998
608,497,Alpine Elementary School,K-3,"1590 Alpine Dr, Columbus, Ohio, 43229",(614) 365-5359,40.095578,-82.9737619
609,992,Arlington Local High School,7-12,"336 S Main St, Arlington, Ohio, 45814",(419) 365-5121,40.889062,-83.6522985
610,1388,Avon Lake High School,9-12,"175 Avon Belden Rd, Avon Lake, Ohio, 44012",(440) 933-6290,41.5082601,-82.01636059999998
611,1883,Beallsville High School,"7-12,PS","52682 Ohio Ave, Beallsville, Ohio, 43716",(740) 926-1302,39.8476907,-81.04085649999998
612,2279,Bellville Elementary School,K-5,"195 School St, Bellville, Ohio, 44813",(419) 886-3244,40.618115,-82.50822199999998
613,3665,Broadleigh Elementary School,"K-5,P","3039 Maryland Ave, Columbus, Ohio, 43209",(614) 365-6144,39.9752972,-82.92110190000002
614,4556,Caldwell High School,9-12,"516 Fairground St, Caldwell, Ohio, 43724",(740) 732-5634,39.7510268,-81.51772559999998
615,5447,Wellston Middle School,6-8,"227 Golden Rocket Drive, Wellston, Ohio, 45692",(740) 384-2251,39.1364571,-82.5359548
616,5942,Charles W Eliot  School,"P,K-8","17900 Harvard Ave, Cleveland, Ohio, 44128",(216) 838-5350,41.4493786,-81.5532449
617,6338,Circleville Middle School,6-8,"360 Clark Dr, Circleville, Ohio, 43113",(740) 474-2345,39.6076253,-82.92498619999998
618,7724,Crestwood High School,9-12,"10919 Main St, Mantua, Ohio, 44255",(330) 274-2214,41.2887917,-81.22592490000002
619,8615,Donnelsville Elementary School,2-3,"150 E. Main St, Donnelsville, Ohio, 45319",(937) 845-4540,39.9195001,-83.94388289999998
620,10298,Western Reserve Elementary School,K-5,"13850 W Akron Canfield Rd, Berlin Center, Ohio, 44401",(330) 547-4100,41.0254832,-80.91306209999998
621,10504,Emerson Elementary School,K-5,"44 N Vine St, Westerville, Ohio, 43081",(614) 797-7080,40.127319,-82.928815
622,10793,Euclid Central Middle School,6-7,"20701 Euclid Ave, Euclid, Ohio, 44117",(216) 797-5300,41.5696719,-81.5361586
623,11189,Fairmoor Elementary School,K-5,"3281 Mayfair Park Pl, Columbus, Ohio, 43213",(614) 365-6169,39.9618519,-82.91199920000003
624,11684,Firelands High School,9-12,"10643 Vermilion Rd, Oberlin, Ohio, 44074",(440) 965-4255,41.3368059,-82.29880390000002
625,3053,Boardman Glenwood Junior High,7-8,"7635 Glenwood Ave, Youngstown, Ohio, 44512",(330) 726-3414,41.0134,-80.669584
626,5330,Central Trail Elementary School,K-5,"4321 Mitchaw Rd, Sylvania, Ohio, 43560",(419) 824-8610,41.6934409,-83.76389379999998
627,8003,Dalton High School,9-12,"177 Mill St N, Dalton, Ohio, 44618",(330) 828-2261,40.8035076,-81.69594819999998
628,8292,Defiance Middle School,6-8,"1755 Palmer Dr, Defiance, Ohio, 43512",(419) 782-0050,41.2640775,-84.35962690000002
629,11072,Fairfield Union High School,9-12,"6675 Cincinnati Zanesville Rd NE, Lancaster, Ohio, 43130",(740) 536-7188,39.7543593,-82.4669832
630,5785,R B Chamberlin Middle School,7-8,"10270 Ravenna Rd, Twinsburg, Ohio, 44087",(330) 486-2281,41.32121970000001,-81.4559647
631,7567,Cranbrook Elementary School,K-5,"908 Bricker Blvd, Columbus, Ohio, 43221",(614) 365-5497,40.02473320000001,-83.03886469999998
632,8953,East Canton Elementary School,"K-5,P","310 Browning Ct N, East Canton, Ohio, 44730",(330) 488-0392,40.7893435,-81.27917579999998
633,547,Amanda Elementary School,"K-5,P","1300 Oxford State Rd, Middletown, Ohio, 45044",(513) 420-4542,39.4789856,-84.4079922
634,1438,Babeck Early Childhood School,"K-1,P","100 Maple Ave, Trenton, Ohio, 45067",(513) 988-0111,39.4734756,-84.4577341
635,1933,Beaver Local Middle School,5-8,"46088 Bell School Rd, East Liverpool, Ohio, 43920",(330) 386-8700,40.7106482,-80.6303345
636,2824,Blairwood Elementary School,K-6,"1241 Blairwood Ave, Dayton, Ohio, 45417",(937) 263-3504,39.728167,-84.27351999999998
637,5173,Cedarville High School,6-12,"194 Walnut St, Cedarville, Ohio, 45314",(937) 766-1871,39.7479302,-83.80492939999998
638,7450,Crooksville Middle School,5-8,"12400 Tunnel Hill Rd, Crooksville, Ohio, 43731",(740) 982-7010,39.74067369999999,-82.1008059
639,10348,Wauseon Elementary School,3-5,"950 E Oak St, Wauseon, Ohio, 43567",(419) 335-6581,41.5517049,-84.13062359999998
640,10843,Evendale Elementary School,"K-5,P","3940 Glendale Milford Rd, Cincinnati, Ohio, 45241",(513) 864-1200,39.254282,-84.399666
641,11239,Fairport Harding High School,6-12,"329 Vine St, Fairport Harbor, Ohio, 44077",(440) 354-3592,41.7547211,-81.2726964
642,11734,Rittman Middle School,6-8,"50 Saurer St, Rittman, Ohio, 44270",(330) 927-7100,40.97547270000001,-81.796216
643,1321,Austinburg Elementary School,"K-5,P","3030 State Route 307, Austinburg, Ohio, 44010",(440) 466-4831,41.770351,-80.86094
644,3103,Bolich Middle School,6-8,"2630 13th St, Cuyahoga Falls, Ohio, 44223",(330) 926-3801,41.14539449999999,-81.5002318
645,8342,Pike-Delta-York High School,9-12,"605 Taylor St, Delta, Ohio, 43515",(419) 822-8247,41.5827313,-84.0000508
646,9233,Eakin Elementary School,"K-5,P","3774 Eakin Rd, Columbus, Ohio, 43228",(614) 365-5928,39.9398501,-83.09912539999998
647,11122,Fairland Middle School,6-8,"7875 County Road 107, Proctorville, Ohio, 45669",(740) 886-3200,38.4444149,-82.35795399999998
648,885,Arcadia Elementary School,K-6,"19033 State Route 12, Arcadia, Ohio, 44804",(419) 894-6431,41.1064685,-83.5150996
649,1776,Bauer Elementary School,K-5,"701 N. Springboro Pike, Dayton, Ohio, 45449",(937) 434-9191,39.65124270000001,-84.2257497
650,2667,Beverly Gardens Elementary School,K-4,"5555 Enright Ave, Dayton, Ohio, 45431",(937) 259-6620,39.7652049,-84.1060907
651,3558,The Bridgeport School District - High School,9-12,"55707 Industrial Dr, Bridgeport, Ohio, 43912",(740) 635-0853,40.0691947,-80.77738070000002
652,5835,Champion Middle School,5-8,"5976 Mahoning Ave NW Ste C, Warren, Ohio, 44483",(330) 847-2340,41.31661629999999,-80.84926209999998
653,7617,Crestline High School,6-12,"435 Oldfield Rd, Crestline, Ohio, 44827",(419) 683-3647,40.7991935,-82.74284759999998
654,8508,West Muskingum Elementary School,K-4,"200 Kimes Rd, Zanesville, Ohio, 43701",(740) 455-4058,39.9571741,-82.0876083
655,9688,Claymont Elementary School,2-3,"1200 Eastport Ave, Uhrichsville, Ohio, 44683",(740) 922-4641,40.401372,-81.341453
656,10686,Ervin Carlisle Elementary School,K-5,"746 St Rt 37 W, Delaware, Ohio, 43015",(740) 833-1450,40.2944345,-83.03788320000002
657,2055,Winton Woods Primary North,"K-2,P","73 Junefield Ave, Cincinnati, Ohio, 45218",(513) 619-2390,39.27018220000001,-84.510667
658,7005,Columbia Elementary School,K-5,"150 Columbus Rd, Mount Vernon, Ohio, 43050",(740) 393-5975,40.3802838,-82.4953683
659,7294,Cookson Elementary School,K-5,"921 Mystic Ln, Troy, Ohio, 45373",(937) 332-6740,40.046906,-84.185114
660,8185,Daw Elementary School,4-7,"929 Center St, Wellsville, Ohio, 43968",(330) 532-1372,40.6040788,-80.64873270000002
661,8680,Memorial School,"P,K-8","410 E 152nd St, Cleveland, Ohio, 44110",(216) 838-0850,41.5710747,-81.57626579999999
662,9076,East Linden Elementary School,"K-5,P","2505 Brentnell Ave, Columbus, Ohio, 43211",(614) 365-5459,40.020086,-82.9480526
663,9571,Eastern High School,9-12,"38900 State Route 7, Reedsville, Ohio, 45772",(740) 985-3329,39.1222543,-81.8826132
664,10074,Niles Middle School,6-8,"411 Brown St, Niles, Ohio, 44446",(330) 652-5656,41.1724982,-80.76422199999998
665,11460,Fayetteville-Perry High School,9-12,"501 S Apple St, Fayetteville, Ohio, 45118",(513) 875-3520,39.1836777,-83.931336
666,3442,Brantwood Elementary School,K-4,"4350 Schwinn Dr, Dayton, Ohio, 45404",(937) 237-4270,39.8110222,-84.1407928
667,4333,Wauseon Middle School,6-8,"940 E Oak St, Wauseon, Ohio, 43567",(419) 335-2701,41.55337120000001,-84.12265099999998
668,5678,Xenia Preschool,"K,P","425 Edison Blvd, Xenia, Ohio, 45385",(937) 562-9706,39.6904183,-83.92653709999998
669,7955,Cuyahoga Hts High School,9-12,"4820 E 71st St, Cuyahoga Heights, Ohio, 44125",(216) 429-5707,41.4277357,-81.64355259999998
670,935,Archbold High School,9-12,"600 Lafayette St, Archbold, Ohio, 43502",(419) 445-5579,41.516075,-84.313563
671,3897,Brown Elementary School,K-5,"2494 Walker Rd, Hilliard, Ohio, 43026",(614) 921-5400,40.0005882,-83.20123620000003
672,5066,Case ,"P,K-8","4050 Superior Ave, Cleveland, Ohio, 44103",(216) 838-1350,41.5138443,-81.6614231
673,5561,Central Primary School,K-3,"799 Washington St, Bedford, Ohio, 44146",(440) 439-4225,41.3902574,-81.5311005
674,8847,Philo Junior High School,6-8,"225 Market St, Philo, Ohio, 43771",(740) 674-5210,39.862511700000006,-81.9102254
675,9738,Eastwood Elementary School,K-2,"198 E College St, Oberlin, Ohio, 44074",(440) 775-3473,41.2922314,-82.2096705
676,11627,Findlay High School,9-12,"1200 Broad Ave, Findlay, Ohio, 45840",(419) 425-8302,41.0566539,-83.66592709999998
677,12518,French Run Elementary School,"K-4,P","1200 Epworth Ave, Reynoldsburg, Ohio, 43068",(614) 367-1950,39.9594087,-82.7986615
678,3285,Bowling Green High School,9-12,"530 W Poe Rd, Bowling Green, Ohio, 43402",(419) 354-0100,41.3874566,-83.65728490000002
679,3780,Brooklyn High School,8-12,"9200 Biddulph Rd, Brooklyn, Ohio, 44144",(216) 485-8162,41.4307536,-81.74973100000003
680,4176,Buckskin Elementary School,K-5,"4297 Broadway St, South Salem, Ohio, 45681",(937) 981-2673,39.3359619,-83.30997640000002
681,7344,Cork Elementary School,K-5,"341 State Route 534 S, Geneva, Ohio, 44041",(440) 466-4831,41.732213,-80.953886
682,8730,Dowds Elementary School,K-4,"18 Seneca Dr, Shelby, Ohio, 44875",(419) 342-4641,40.8687619,-82.64691529999997
683,9621,Eastlake Middle School,6-8,"35972 Lake Shore Blvd, Eastlake, Ohio, 44095",(440) 942-5696,41.6742152,-81.422812
684,12195,Franklin Monroe Elementary School,K-6,"8591 Oakes Rd, Arcanum, Ohio, 45304",(937) 947-1206,39.981471000000006,-84.48178
685,12401,Frazer Elementary School,K-4,"3900 Frazer Ave NW, Canton, Ohio, 44709",(330) 491-3740,40.841606,-81.373983
686,778,Ansonia High School,9-12,"600 E Canal St, Ansonia, Ohio, 45303",(937) 337-5591,40.2156648,-84.6288493
687,1669,Bascom Elementary School,K-2,"1015 N Leavitt Rd, Leavittsburg, Ohio, 44430",(330) 898-3041,41.254383,-80.874059
688,5728,Reading Primary Elementary School,"K-2,P","810 E Columbia Ave, Reading, Ohio, 45215",(513) 554-1001,39.2207937,-84.4265901
689,6619,Clearview High School,9-12,"4700 Broadway, Lorain, Ohio, 44052",(440) 233-6313,41.42561570000001,-82.1643095
690,7799,Crissey Elementary School,K-5,"9220 Geiser Rd, Holland, Ohio, 43528",(419) 867-5677,41.61046020000001,-83.76261269999998
691,1057,Arthur Road Elementary School,"P,12,UNG,SN","33425 Arthur Rd, Solon, Ohio, 44139",(440) 349-6210,41.3716704,-81.441436
692,4838,East Palestine Elementary School,"H,P,K,1-4","195 W Grant St, East Palestine, Ohio, 44413",(330) 426-3638,40.8387802,-80.5443428
693,6007,Chase STEM Academy,K-8,"600 Bassett St, Toledo, Ohio, 43611",(419) 671-6650,41.6841254,-83.4962733
694,6296,Chillicothe High School,9-12,"421 Yoctangee Pkwy, Chillicothe, Ohio, 45601",(740) 702-2287,39.3420113,-82.9884027
695,6502,Clay High School,9-12,"44 Clay High St, Portsmouth, Ohio, 45662",(740) 354-6644,38.8039861,-82.9822441
696,6791,Clyde High School,9-12,"1015 Race St, Clyde, Ohio, 43410",(419) 547-9511,41.290719,-82.987296
697,7187,Conesville Elementary School,K-6,"199 State St, Conesville, Ohio, 43811",(740) 829-2334,40.1881242,-81.8941735
698,8078,Danville Elementary School,K-5,"205 Rambo St, Danville, Ohio, 43014",(740) 599-6116,40.4482454,-82.2638465
699,9464,East Elementary School,"K-1,P","137 S College St, Newcomerstown, Ohio, 43832",(740) 498-6601,40.2747341,-81.60359179999998
700,10462,Elyria High School,9-12,"311 6th St, Elyria, Ohio, 44035",(440) 284-8300,41.3619425,-82.109494
701,2444,Western Reserve Middle School,6-8,"13850 W Akron Canfield Rd, Berlin Center, Ohio, 44401",(330) 547-4100,41.0254832,-80.91306209999998
702,3335,LaBrae Intermediate School,3-5,"1001 N Leavitt Rd, Leavittsburg, Ohio, 44430",(330) 898-0800,41.254051200000006,-80.87403809999998
703,3830,Brookside High School,9-12,"1662 Harris Rd, Sheffield Village, Ohio, 44054",(440) 949-4220,41.4690558,-82.09585820000002
704,7070,Columbus Intermediate School,4-6,"23600 Columbus Rd, Bedford, Ohio, 44146",(440) 786-3322,41.400992,-81.51183499999998
705,12245,Franklin Elementary School,"K-3,P","1237 16th St SE, Massillon, Ohio, 44646",(330) 830-3907,40.782731,-81.50671899999998
706,6957,Carey Elementary School,K-6,"2016 Blue Devil Drive, Carey, Ohio, 43316",(419) 396-6767,40.94534760000001,-83.38726129999998
